<?xml version="1.0" encoding="UTF-8"?>
<gpx xmlns="http://www.topografix.com/GPX/1/1" xmlns:xsi="http://www.w3.org/2001/XMLSchema-instance" version="1.1" creator="FitAnalyzer/1.0" xsi:schemaLocation="http://www.topografix.com/GPX/1/1 http://www.topografix.com/GPX/1/1/gpx.xsd">
  <metadata>
    <name>规划路线</name>
    <desc>距离 10.42km，爬升 71.0m，爬坡 0 段</desc>
  </metadata>
  <trk>
    <name>规划路线</name>
    <trkseg>
      <trkpt lat="41.7472901" lon="123.4348945">
        <ele>50.0</ele>
      </trkpt>
      <trkpt lat="41.7472678" lon="123.4347422">
        <ele>50.0</ele>
      </trkpt>
      <trkpt lat="41.7472327" lon="123.4346510">
        <ele>50.0</ele>
      </trkpt>
      <trkpt lat="41.7472106" lon="123.4346210">
        <ele>50.0</ele>
      </trkpt>
      <trkpt lat="41.7472066" lon="123.4346160">
        <ele>50.0</ele>
      </trkpt>
      <trkpt lat="41.7470372" lon="123.4343595">
        <ele>50.0</ele>
      </trkpt>
      <trkpt lat="41.7470322" lon="123.4343555">
        <ele>50.0</ele>
      </trkpt>
      <trkpt lat="41.7468758" lon="123.4341161">
        <ele>46.0</ele>
      </trkpt>
      <trkpt lat="41.7468017" lon="123.4340249">
        <ele>46.0</ele>
      </trkpt>
      <trkpt lat="41.7467326" lon="123.4339728">
        <ele>46.0</ele>
      </trkpt>
      <trkpt lat="41.7467326" lon="123.4339728">
        <ele>46.0</ele>
      </trkpt>
      <trkpt lat="41.7466765" lon="123.4339378">
        <ele>46.0</ele>
      </trkpt>
      <trkpt lat="41.7465894" lon="123.4338426">
        <ele>48.0</ele>
      </trkpt>
      <trkpt lat="41.7461453" lon="123.4331294">
        <ele>47.0</ele>
      </trkpt>
      <trkpt lat="41.7456320" lon="123.4322860">
        <ele>47.0</ele>
      </trkpt>
      <trkpt lat="41.7455578" lon="123.4321598">
        <ele>47.0</ele>
      </trkpt>
      <trkpt lat="41.7454794" lon="123.4319164">
        <ele>47.0</ele>
      </trkpt>
      <trkpt lat="41.7454794" lon="123.4319164">
        <ele>47.0</ele>
      </trkpt>
      <trkpt lat="41.7454181" lon="123.4317381">
        <ele>47.0</ele>
      </trkpt>
      <trkpt lat="41.7454181" lon="123.4317381">
        <ele>47.0</ele>
      </trkpt>
      <trkpt lat="41.7454051" lon="123.4317030">
        <ele>47.0</ele>
      </trkpt>
      <trkpt lat="41.7454011" lon="123.4316990">
        <ele>47.0</ele>
      </trkpt>
      <trkpt lat="41.7454011" lon="123.4316950">
        <ele>47.0</ele>
      </trkpt>
      <trkpt lat="41.7454011" lon="123.4316950">
        <ele>47.0</ele>
      </trkpt>
      <trkpt lat="41.7454011" lon="123.4316950">
        <ele>47.0</ele>
      </trkpt>
      <trkpt lat="41.7453232" lon="123.4317551">
        <ele>47.0</ele>
      </trkpt>
      <trkpt lat="41.7453182" lon="123.4317551">
        <ele>47.0</ele>
      </trkpt>
      <trkpt lat="41.7452922" lon="123.4317682">
        <ele>47.0</ele>
      </trkpt>
      <trkpt lat="41.7451842" lon="123.4317902">
        <ele>47.0</ele>
      </trkpt>
      <trkpt lat="41.7451792" lon="123.4317902">
        <ele>47.0</ele>
      </trkpt>
      <trkpt lat="41.7451103" lon="123.4318293">
        <ele>47.0</ele>
      </trkpt>
      <trkpt lat="41.7451103" lon="123.4318293">
        <ele>47.0</ele>
      </trkpt>
      <trkpt lat="41.7450622" lon="123.4317382">
        <ele>47.0</ele>
      </trkpt>
      <trkpt lat="41.7448364" lon="123.4311993">
        <ele>48.0</ele>
      </trkpt>
      <trkpt lat="41.7444959" lon="123.4302428">
        <ele>51.0</ele>
      </trkpt>
      <trkpt lat="41.7444698" lon="123.4301466">
        <ele>51.0</ele>
      </trkpt>
      <trkpt lat="41.7444698" lon="123.4301466">
        <ele>51.0</ele>
      </trkpt>
      <trkpt lat="41.7444396" lon="123.4300384">
        <ele>51.0</ele>
      </trkpt>
      <trkpt lat="41.7443613" lon="123.4298031">
        <ele>51.0</ele>
      </trkpt>
      <trkpt lat="41.7442298" lon="123.4294556">
        <ele>51.0</ele>
      </trkpt>
      <trkpt lat="41.7442258" lon="123.4294516">
        <ele>51.0</ele>
      </trkpt>
      <trkpt lat="41.7441737" lon="123.4294085">
        <ele>51.0</ele>
      </trkpt>
      <trkpt lat="41.7441257" lon="123.4293905">
        <ele>46.0</ele>
      </trkpt>
      <trkpt lat="41.7440647" lon="123.4293905">
        <ele>46.0</ele>
      </trkpt>
      <trkpt lat="41.7440647" lon="123.4293905">
        <ele>46.0</ele>
      </trkpt>
      <trkpt lat="41.7437748" lon="123.4293945">
        <ele>46.0</ele>
      </trkpt>
      <trkpt lat="41.7437748" lon="123.4293945">
        <ele>46.0</ele>
      </trkpt>
      <trkpt lat="41.7437438" lon="123.4293945">
        <ele>46.0</ele>
      </trkpt>
      <trkpt lat="41.7436828" lon="123.4293905">
        <ele>46.0</ele>
      </trkpt>
      <trkpt lat="41.7436787" lon="123.4293865">
        <ele>46.0</ele>
      </trkpt>
      <trkpt lat="41.7436656" lon="123.4292513">
        <ele>46.0</ele>
      </trkpt>
      <trkpt lat="41.7436389" lon="123.4287776">
        <ele>45.0</ele>
      </trkpt>
      <trkpt lat="41.7436478" lon="123.4286955">
        <ele>45.0</ele>
      </trkpt>
      <trkpt lat="41.7436776" lon="123.4286123">
        <ele>45.0</ele>
      </trkpt>
      <trkpt lat="41.7437296" lon="123.4285643">
        <ele>45.0</ele>
      </trkpt>
      <trkpt lat="41.7438425" lon="123.4285212">
        <ele>45.0</ele>
      </trkpt>
      <trkpt lat="41.7439164" lon="123.4284691">
        <ele>45.0</ele>
      </trkpt>
      <trkpt lat="41.7439464" lon="123.4284601">
        <ele>45.0</ele>
      </trkpt>
      <trkpt lat="41.7439464" lon="123.4284561">
        <ele>45.0</ele>
      </trkpt>
      <trkpt lat="41.7439201" lon="123.4282688">
        <ele>44.0</ele>
      </trkpt>
      <trkpt lat="41.7438156" lon="123.4278993">
        <ele>44.0</ele>
      </trkpt>
      <trkpt lat="41.7438156" lon="123.4278602">
        <ele>44.0</ele>
      </trkpt>
      <trkpt lat="41.7438325" lon="123.4278342">
        <ele>44.0</ele>
      </trkpt>
      <trkpt lat="41.7439155" lon="123.4277911">
        <ele>44.0</ele>
      </trkpt>
      <trkpt lat="41.7439155" lon="123.4277871">
        <ele>44.0</ele>
      </trkpt>
      <trkpt lat="41.7439768" lon="123.4280084">
        <ele>44.0</ele>
      </trkpt>
      <trkpt lat="41.7440500" lon="123.4281957">
        <ele>44.0</ele>
      </trkpt>
      <trkpt lat="41.7440941" lon="123.4282868">
        <ele>44.0</ele>
      </trkpt>
      <trkpt lat="41.7440550" lon="123.4281997">
        <ele>44.0</ele>
      </trkpt>
      <trkpt lat="41.7439808" lon="123.4280124">
        <ele>44.0</ele>
      </trkpt>
      <trkpt lat="41.7439195" lon="123.4277911">
        <ele>44.0</ele>
      </trkpt>
      <trkpt lat="41.7439195" lon="123.4277911">
        <ele>44.0</ele>
      </trkpt>
      <trkpt lat="41.7438672" lon="123.4275648">
        <ele>44.0</ele>
      </trkpt>
      <trkpt lat="41.7437926" lon="123.4271692">
        <ele>46.0</ele>
      </trkpt>
      <trkpt lat="41.7437926" lon="123.4271692">
        <ele>46.0</ele>
      </trkpt>
      <trkpt lat="41.7437230" lon="123.4266785">
        <ele>46.0</ele>
      </trkpt>
      <trkpt lat="41.7436739" lon="123.4258964">
        <ele>47.0</ele>
      </trkpt>
      <trkpt lat="41.7436739" lon="123.4258964">
        <ele>47.0</ele>
      </trkpt>
      <trkpt lat="41.7436376" lon="123.4248571">
        <ele>53.0</ele>
      </trkpt>
      <trkpt lat="41.7436376" lon="123.4248571">
        <ele>53.0</ele>
      </trkpt>
      <trkpt lat="41.7436369" lon="123.4243144">
        <ele>53.0</ele>
      </trkpt>
      <trkpt lat="41.7436369" lon="123.4243144">
        <ele>53.0</ele>
      </trkpt>
      <trkpt lat="41.7436971" lon="123.4236756">
        <ele>53.0</ele>
      </trkpt>
      <trkpt lat="41.7436971" lon="123.4236756">
        <ele>53.0</ele>
      </trkpt>
      <trkpt lat="41.7437486" lon="123.4232450">
        <ele>51.0</ele>
      </trkpt>
      <trkpt lat="41.7437486" lon="123.4232450">
        <ele>51.0</ele>
      </trkpt>
      <trkpt lat="41.7437834" lon="123.4231099">
        <ele>51.0</ele>
      </trkpt>
      <trkpt lat="41.7437834" lon="123.4231099">
        <ele>51.0</ele>
      </trkpt>
      <trkpt lat="41.7438959" lon="123.4226453">
        <ele>51.0</ele>
      </trkpt>
      <trkpt lat="41.7442895" lon="123.4214939">
        <ele>54.0</ele>
      </trkpt>
      <trkpt lat="41.7442895" lon="123.4214939">
        <ele>54.0</ele>
      </trkpt>
      <trkpt lat="41.7443932" lon="123.4211986">
        <ele>54.0</ele>
      </trkpt>
      <trkpt lat="41.7443932" lon="123.4211986">
        <ele>54.0</ele>
      </trkpt>
      <trkpt lat="41.7447351" lon="123.4201905">
        <ele>49.0</ele>
      </trkpt>
      <trkpt lat="41.7447351" lon="123.4201905">
        <ele>49.0</ele>
      </trkpt>
      <trkpt lat="41.7448557" lon="123.4198121">
        <ele>46.0</ele>
      </trkpt>
      <trkpt lat="41.7448557" lon="123.4198121">
        <ele>46.0</ele>
      </trkpt>
      <trkpt lat="41.7451677" lon="123.4188952">
        <ele>51.0</ele>
      </trkpt>
      <trkpt lat="41.7451677" lon="123.4188952">
        <ele>51.0</ele>
      </trkpt>
      <trkpt lat="41.7453272" lon="123.4184137">
        <ele>51.0</ele>
      </trkpt>
      <trkpt lat="41.7453272" lon="123.4184137">
        <ele>51.0</ele>
      </trkpt>
      <trkpt lat="41.7456093" lon="123.4175139">
        <ele>47.0</ele>
      </trkpt>
      <trkpt lat="41.7456303" lon="123.4174398">
        <ele>42.0</ele>
      </trkpt>
      <trkpt lat="41.7456303" lon="123.4174398">
        <ele>42.0</ele>
      </trkpt>
      <trkpt lat="41.7457818" lon="123.4169404">
        <ele>42.0</ele>
      </trkpt>
      <trkpt lat="41.7457818" lon="123.4169404">
        <ele>42.0</ele>
      </trkpt>
      <trkpt lat="41.7458905" lon="123.4166191">
        <ele>47.0</ele>
      </trkpt>
      <trkpt lat="41.7463705" lon="123.4154982">
        <ele>42.0</ele>
      </trkpt>
      <trkpt lat="41.7465442" lon="123.4151989">
        <ele>42.0</ele>
      </trkpt>
      <trkpt lat="41.7466700" lon="123.4149988">
        <ele>48.0</ele>
      </trkpt>
      <trkpt lat="41.7472074" lon="123.4142952">
        <ele>43.0</ele>
      </trkpt>
      <trkpt lat="41.7472204" lon="123.4142732">
        <ele>43.0</ele>
      </trkpt>
      <trkpt lat="41.7473333" lon="123.4141431">
        <ele>43.0</ele>
      </trkpt>
      <trkpt lat="41.7481226" lon="123.4133575">
        <ele>42.0</ele>
      </trkpt>
      <trkpt lat="41.7481226" lon="123.4133575">
        <ele>42.0</ele>
      </trkpt>
      <trkpt lat="41.7489599" lon="123.4125619">
        <ele>42.0</ele>
      </trkpt>
      <trkpt lat="41.7489599" lon="123.4125579">
        <ele>42.0</ele>
      </trkpt>
      <trkpt lat="41.7497094" lon="123.4118544">
        <ele>41.0</ele>
      </trkpt>
      <trkpt lat="41.7497094" lon="123.4118544">
        <ele>41.0</ele>
      </trkpt>
      <trkpt lat="41.7497923" lon="123.4117764">
        <ele>41.0</ele>
      </trkpt>
      <trkpt lat="41.7497923" lon="123.4117764">
        <ele>41.0</ele>
      </trkpt>
      <trkpt lat="41.7499002" lon="123.4116713">
        <ele>41.0</ele>
      </trkpt>
      <trkpt lat="41.7499002" lon="123.4116713">
        <ele>41.0</ele>
      </trkpt>
      <trkpt lat="41.7499392" lon="123.4116323">
        <ele>36.0</ele>
      </trkpt>
      <trkpt lat="41.7499392" lon="123.4116323">
        <ele>36.0</ele>
      </trkpt>
      <trkpt lat="41.7500351" lon="123.4115412">
        <ele>40.0</ele>
      </trkpt>
      <trkpt lat="41.7500351" lon="123.4115412">
        <ele>40.0</ele>
      </trkpt>
      <trkpt lat="41.7503040" lon="123.4112851">
        <ele>40.0</ele>
      </trkpt>
      <trkpt lat="41.7503040" lon="123.4112851">
        <ele>40.0</ele>
      </trkpt>
      <trkpt lat="41.7505428" lon="123.4110599">
        <ele>40.0</ele>
      </trkpt>
      <trkpt lat="41.7505428" lon="123.4110599">
        <ele>40.0</ele>
      </trkpt>
      <trkpt lat="41.7506727" lon="123.4109289">
        <ele>40.0</ele>
      </trkpt>
      <trkpt lat="41.7506727" lon="123.4109289">
        <ele>40.0</ele>
      </trkpt>
      <trkpt lat="41.7507986" lon="123.4108158">
        <ele>40.0</ele>
      </trkpt>
      <trkpt lat="41.7507986" lon="123.4108158">
        <ele>40.0</ele>
      </trkpt>
      <trkpt lat="41.7509065" lon="123.4107167">
        <ele>43.0</ele>
      </trkpt>
      <trkpt lat="41.7509065" lon="123.4107167">
        <ele>43.0</ele>
      </trkpt>
      <trkpt lat="41.7512063" lon="123.4104256">
        <ele>43.0</ele>
      </trkpt>
      <trkpt lat="41.7512063" lon="123.4104256">
        <ele>43.0</ele>
      </trkpt>
      <trkpt lat="41.7512363" lon="123.4103905">
        <ele>43.0</ele>
      </trkpt>
      <trkpt lat="41.7512363" lon="123.4103905">
        <ele>43.0</ele>
      </trkpt>
      <trkpt lat="41.7516400" lon="123.4100043">
        <ele>43.0</ele>
      </trkpt>
      <trkpt lat="41.7516400" lon="123.4100043">
        <ele>43.0</ele>
      </trkpt>
      <trkpt lat="41.7517350" lon="123.4099083">
        <ele>41.0</ele>
      </trkpt>
      <trkpt lat="41.7517350" lon="123.4099083">
        <ele>41.0</ele>
      </trkpt>
      <trkpt lat="41.7523856" lon="123.4092880">
        <ele>41.0</ele>
      </trkpt>
      <trkpt lat="41.7523856" lon="123.4092880">
        <ele>41.0</ele>
      </trkpt>
      <trkpt lat="41.7528063" lon="123.4088798">
        <ele>42.0</ele>
      </trkpt>
      <trkpt lat="41.7528063" lon="123.4088798">
        <ele>42.0</ele>
      </trkpt>
      <trkpt lat="41.7531491" lon="123.4085496">
        <ele>42.0</ele>
      </trkpt>
      <trkpt lat="41.7531491" lon="123.4085496">
        <ele>42.0</ele>
      </trkpt>
      <trkpt lat="41.7536868" lon="123.4080324">
        <ele>41.0</ele>
      </trkpt>
      <trkpt lat="41.7536868" lon="123.4080324">
        <ele>41.0</ele>
      </trkpt>
      <trkpt lat="41.7540776" lon="123.4076552">
        <ele>41.0</ele>
      </trkpt>
      <trkpt lat="41.7540776" lon="123.4076552">
        <ele>41.0</ele>
      </trkpt>
      <trkpt lat="41.7545723" lon="123.4071770">
        <ele>41.0</ele>
      </trkpt>
      <trkpt lat="41.7545723" lon="123.4071770">
        <ele>41.0</ele>
      </trkpt>
      <trkpt lat="41.7547112" lon="123.4070470">
        <ele>41.0</ele>
      </trkpt>
      <trkpt lat="41.7547112" lon="123.4070470">
        <ele>41.0</ele>
      </trkpt>
      <trkpt lat="41.7547632" lon="123.4069910">
        <ele>41.0</ele>
      </trkpt>
      <trkpt lat="41.7547632" lon="123.4069910">
        <ele>41.0</ele>
      </trkpt>
      <trkpt lat="41.7553399" lon="123.4064438">
        <ele>41.0</ele>
      </trkpt>
      <trkpt lat="41.7553399" lon="123.4064438">
        <ele>41.0</ele>
      </trkpt>
      <trkpt lat="41.7559086" lon="123.4058966">
        <ele>45.0</ele>
      </trkpt>
      <trkpt lat="41.7559086" lon="123.4058966">
        <ele>45.0</ele>
      </trkpt>
      <trkpt lat="41.7564554" lon="123.4053715">
        <ele>36.0</ele>
      </trkpt>
      <trkpt lat="41.7564554" lon="123.4053715">
        <ele>36.0</ele>
      </trkpt>
      <trkpt lat="41.7565893" lon="123.4052414">
        <ele>36.0</ele>
      </trkpt>
      <trkpt lat="41.7567582" lon="123.4050714">
        <ele>49.0</ele>
      </trkpt>
      <trkpt lat="41.7567582" lon="123.4050714">
        <ele>49.0</ele>
      </trkpt>
      <trkpt lat="41.7569801" lon="123.4048204">
        <ele>41.0</ele>
      </trkpt>
      <trkpt lat="41.7569801" lon="123.4048204">
        <ele>41.0</ele>
      </trkpt>
      <trkpt lat="41.7572310" lon="123.4045333">
        <ele>41.0</ele>
      </trkpt>
      <trkpt lat="41.7572310" lon="123.4045333">
        <ele>41.0</ele>
      </trkpt>
      <trkpt lat="41.7573139" lon="123.4044423">
        <ele>41.0</ele>
      </trkpt>
      <trkpt lat="41.7573139" lon="123.4044423">
        <ele>41.0</ele>
      </trkpt>
      <trkpt lat="41.7573959" lon="123.4043293">
        <ele>41.0</ele>
      </trkpt>
      <trkpt lat="41.7573959" lon="123.4043293">
        <ele>41.0</ele>
      </trkpt>
      <trkpt lat="41.7576478" lon="123.4039732">
        <ele>45.0</ele>
      </trkpt>
      <trkpt lat="41.7578516" lon="123.4036302">
        <ele>45.0</ele>
      </trkpt>
      <trkpt lat="41.7578516" lon="123.4036302">
        <ele>45.0</ele>
      </trkpt>
      <trkpt lat="41.7580205" lon="123.4033132">
        <ele>45.0</ele>
      </trkpt>
      <trkpt lat="41.7582333" lon="123.4027062">
        <ele>41.0</ele>
      </trkpt>
      <trkpt lat="41.7582333" lon="123.4027062">
        <ele>41.0</ele>
      </trkpt>
      <trkpt lat="41.7588057" lon="123.4002494">
        <ele>42.0</ele>
      </trkpt>
      <trkpt lat="41.7588057" lon="123.4002494">
        <ele>42.0</ele>
      </trkpt>
      <trkpt lat="41.7589147" lon="123.3997635">
        <ele>41.0</ele>
      </trkpt>
      <trkpt lat="41.7589147" lon="123.3997635">
        <ele>41.0</ele>
      </trkpt>
      <trkpt lat="41.7590705" lon="123.3990127">
        <ele>39.0</ele>
      </trkpt>
      <trkpt lat="41.7591005" lon="123.3987827">
        <ele>39.0</ele>
      </trkpt>
      <trkpt lat="41.7591005" lon="123.3987827">
        <ele>39.0</ele>
      </trkpt>
      <trkpt lat="41.7591914" lon="123.3980579">
        <ele>44.0</ele>
      </trkpt>
      <trkpt lat="41.7591914" lon="123.3980579">
        <ele>44.0</ele>
      </trkpt>
      <trkpt lat="41.7592394" lon="123.3976031">
        <ele>44.0</ele>
      </trkpt>
      <trkpt lat="41.7592394" lon="123.3976031">
        <ele>44.0</ele>
      </trkpt>
      <trkpt lat="41.7592824" lon="123.3971253">
        <ele>45.0</ele>
      </trkpt>
      <trkpt lat="41.7592824" lon="123.3971253">
        <ele>45.0</ele>
      </trkpt>
      <trkpt lat="41.7593394" lon="123.3964096">
        <ele>46.0</ele>
      </trkpt>
      <trkpt lat="41.7593694" lon="123.3958628">
        <ele>46.0</ele>
      </trkpt>
      <trkpt lat="41.7593694" lon="123.3958628">
        <ele>46.0</ele>
      </trkpt>
      <trkpt lat="41.7594304" lon="123.3946354">
        <ele>45.9</ele>
      </trkpt>
      <trkpt lat="41.7594304" lon="123.3946354">
        <ele>45.9</ele>
      </trkpt>
      <trkpt lat="41.7594175" lon="123.3939408">
        <ele>45.8</ele>
      </trkpt>
      <trkpt lat="41.7594175" lon="123.3939408">
        <ele>45.8</ele>
      </trkpt>
      <trkpt lat="41.7593487" lon="123.3927186">
        <ele>45.7</ele>
      </trkpt>
      <trkpt lat="41.7593487" lon="123.3927186">
        <ele>45.7</ele>
      </trkpt>
      <trkpt lat="41.7592827" lon="123.3924927">
        <ele>45.6</ele>
      </trkpt>
      <trkpt lat="41.7592358" lon="123.3923708">
        <ele>45.6</ele>
      </trkpt>
      <trkpt lat="41.7592178" lon="123.3922979">
        <ele>45.6</ele>
      </trkpt>
      <trkpt lat="41.7591918" lon="123.3921800">
        <ele>45.6</ele>
      </trkpt>
      <trkpt lat="41.7591748" lon="123.3920111">
        <ele>45.6</ele>
      </trkpt>
      <trkpt lat="41.7591620" lon="123.3910918">
        <ele>45.5</ele>
      </trkpt>
      <trkpt lat="41.7591530" lon="123.3910878">
        <ele>45.5</ele>
      </trkpt>
      <trkpt lat="41.7590360" lon="123.3913646">
        <ele>45.4</ele>
      </trkpt>
      <trkpt lat="41.7589060" lon="123.3913566">
        <ele>45.4</ele>
      </trkpt>
      <trkpt lat="41.7583334" lon="123.3899378">
        <ele>45.2</ele>
      </trkpt>
      <trkpt lat="41.7580555" lon="123.3896171">
        <ele>45.2</ele>
      </trkpt>
      <trkpt lat="41.7580515" lon="123.3896131">
        <ele>45.2</ele>
      </trkpt>
      <trkpt lat="41.7580465" lon="123.3896041">
        <ele>45.2</ele>
      </trkpt>
      <trkpt lat="41.7576606" lon="123.3894873">
        <ele>45.1</ele>
      </trkpt>
      <trkpt lat="41.7576606" lon="123.3894873">
        <ele>45.1</ele>
      </trkpt>
      <trkpt lat="41.7576476" lon="123.3894913">
        <ele>45.1</ele>
      </trkpt>
      <trkpt lat="41.7576436" lon="123.3894913">
        <ele>45.1</ele>
      </trkpt>
      <trkpt lat="41.7556424" lon="123.3906276">
        <ele>44.8</ele>
      </trkpt>
      <trkpt lat="41.7556384" lon="123.3906276">
        <ele>44.8</ele>
      </trkpt>
      <trkpt lat="41.7554473" lon="123.3911532">
        <ele>44.8</ele>
      </trkpt>
      <trkpt lat="41.7554032" lon="123.3915350">
        <ele>44.7</ele>
      </trkpt>
      <trkpt lat="41.7554032" lon="123.3915390">
        <ele>44.7</ele>
      </trkpt>
      <trkpt lat="41.7553992" lon="123.3915390">
        <ele>44.7</ele>
      </trkpt>
      <trkpt lat="41.7556330" lon="123.3923803">
        <ele>44.6</ele>
      </trkpt>
      <trkpt lat="41.7557629" lon="123.3933347">
        <ele>44.5</ele>
      </trkpt>
      <trkpt lat="41.7557108" lon="123.3937035">
        <ele>44.5</ele>
      </trkpt>
      <trkpt lat="41.7557108" lon="123.3937035">
        <ele>44.5</ele>
      </trkpt>
      <trkpt lat="41.7557068" lon="123.3937075">
        <ele>44.5</ele>
      </trkpt>
      <trkpt lat="41.7557458" lon="123.3940113">
        <ele>44.4</ele>
      </trkpt>
      <trkpt lat="41.7557587" lon="123.3944191">
        <ele>44.4</ele>
      </trkpt>
      <trkpt lat="41.7557677" lon="123.3951257">
        <ele>44.3</ele>
      </trkpt>
      <trkpt lat="41.7556896" lon="123.3962451">
        <ele>44.2</ele>
      </trkpt>
      <trkpt lat="41.7555117" lon="123.3974167">
        <ele>44.1</ele>
      </trkpt>
      <trkpt lat="41.7554807" lon="123.3975596">
        <ele>44.0</ele>
      </trkpt>
      <trkpt lat="41.7554767" lon="123.3975596">
        <ele>44.0</ele>
      </trkpt>
      <trkpt lat="41.7553637" lon="123.3980585">
        <ele>44.0</ele>
      </trkpt>
      <trkpt lat="41.7553637" lon="123.3980585">
        <ele>44.0</ele>
      </trkpt>
      <trkpt lat="41.7551818" lon="123.3987703">
        <ele>43.9</ele>
      </trkpt>
      <trkpt lat="41.7549429" lon="123.3995171">
        <ele>43.8</ele>
      </trkpt>
      <trkpt lat="41.7547040" lon="123.4001980">
        <ele>43.7</ele>
      </trkpt>
      <trkpt lat="41.7541973" lon="123.4013569">
        <ele>43.6</ele>
      </trkpt>
      <trkpt lat="41.7541973" lon="123.4013569">
        <ele>43.6</ele>
      </trkpt>
      <trkpt lat="41.7540714" lon="123.4016478">
        <ele>43.6</ele>
      </trkpt>
      <trkpt lat="41.7538885" lon="123.4020208">
        <ele>43.5</ele>
      </trkpt>
      <trkpt lat="41.7535156" lon="123.4026108">
        <ele>43.4</ele>
      </trkpt>
      <trkpt lat="41.7531468" lon="123.4030709">
        <ele>43.4</ele>
      </trkpt>
      <trkpt lat="41.7528039" lon="123.4034399">
        <ele>43.3</ele>
      </trkpt>
      <trkpt lat="41.7528039" lon="123.4034399">
        <ele>43.3</ele>
      </trkpt>
      <trkpt lat="41.7521362" lon="123.4040740">
        <ele>43.2</ele>
      </trkpt>
      <trkpt lat="41.7512985" lon="123.4047862">
        <ele>43.0</ele>
      </trkpt>
      <trkpt lat="41.7512985" lon="123.4047862">
        <ele>43.0</ele>
      </trkpt>
      <trkpt lat="41.7510216" lon="123.4050162">
        <ele>43.0</ele>
      </trkpt>
      <trkpt lat="41.7499540" lon="123.4057454">
        <ele>42.8</ele>
      </trkpt>
      <trkpt lat="41.7499540" lon="123.4057454">
        <ele>42.8</ele>
      </trkpt>
      <trkpt lat="41.7492123" lon="123.4062886">
        <ele>42.7</ele>
      </trkpt>
      <trkpt lat="41.7492073" lon="123.4062886">
        <ele>42.7</ele>
      </trkpt>
      <trkpt lat="41.7487735" lon="123.4066097">
        <ele>42.6</ele>
      </trkpt>
      <trkpt lat="41.7478448" lon="123.4072390">
        <ele>42.5</ele>
      </trkpt>
      <trkpt lat="41.7477499" lon="123.4072960">
        <ele>42.4</ele>
      </trkpt>
      <trkpt lat="41.7462144" lon="123.4080124">
        <ele>42.2</ele>
      </trkpt>
      <trkpt lat="41.7462144" lon="123.4080124">
        <ele>42.2</ele>
      </trkpt>
      <trkpt lat="41.7461574" lon="123.4080384">
        <ele>42.2</ele>
      </trkpt>
      <trkpt lat="41.7461574" lon="123.4080384">
        <ele>42.2</ele>
      </trkpt>
      <trkpt lat="41.7456715" lon="123.4082686">
        <ele>42.1</ele>
      </trkpt>
      <trkpt lat="41.7456715" lon="123.4082686">
        <ele>42.1</ele>
      </trkpt>
      <trkpt lat="41.7456066" lon="123.4083026">
        <ele>42.1</ele>
      </trkpt>
      <trkpt lat="41.7450598" lon="123.4085858">
        <ele>42.0</ele>
      </trkpt>
      <trkpt lat="41.7445300" lon="123.4088849">
        <ele>41.9</ele>
      </trkpt>
      <trkpt lat="41.7439583" lon="123.4093362">
        <ele>41.8</ele>
      </trkpt>
      <trkpt lat="41.7434846" lon="123.4097574">
        <ele>41.8</ele>
      </trkpt>
      <trkpt lat="41.7434846" lon="123.4097574">
        <ele>41.8</ele>
      </trkpt>
      <trkpt lat="41.7428650" lon="123.4103747">
        <ele>41.7</ele>
      </trkpt>
      <trkpt lat="41.7420537" lon="123.4113173">
        <ele>41.5</ele>
      </trkpt>
      <trkpt lat="41.7418719" lon="123.4115734">
        <ele>41.5</ele>
      </trkpt>
      <trkpt lat="41.7416851" lon="123.4118906">
        <ele>41.4</ele>
      </trkpt>
      <trkpt lat="41.7413815" lon="123.4124809">
        <ele>41.3</ele>
      </trkpt>
      <trkpt lat="41.7411609" lon="123.4129712">
        <ele>41.3</ele>
      </trkpt>
      <trkpt lat="41.7411609" lon="123.4129712">
        <ele>41.3</ele>
      </trkpt>
      <trkpt lat="41.7410272" lon="123.4133235">
        <ele>41.2</ele>
      </trkpt>
      <trkpt lat="41.7410272" lon="123.4133235">
        <ele>41.2</ele>
      </trkpt>
      <trkpt lat="41.7408575" lon="123.4137618">
        <ele>41.2</ele>
      </trkpt>
      <trkpt lat="41.7407149" lon="123.4142701">
        <ele>41.1</ele>
      </trkpt>
      <trkpt lat="41.7405983" lon="123.4147084">
        <ele>41.1</ele>
      </trkpt>
      <trkpt lat="41.7403991" lon="123.4155861">
        <ele>41.0</ele>
      </trkpt>
      <trkpt lat="41.7399720" lon="123.4176628">
        <ele>40.7</ele>
      </trkpt>
      <trkpt lat="41.7399720" lon="123.4176628">
        <ele>40.7</ele>
      </trkpt>
      <trkpt lat="41.7396734" lon="123.4190921">
        <ele>40.6</ele>
      </trkpt>
      <trkpt lat="41.7395441" lon="123.4198049">
        <ele>40.5</ele>
      </trkpt>
      <trkpt lat="41.7395441" lon="123.4198049">
        <ele>40.5</ele>
      </trkpt>
      <trkpt lat="41.7394022" lon="123.4207649">
        <ele>40.4</ele>
      </trkpt>
      <trkpt lat="41.7392426" lon="123.4220072">
        <ele>40.3</ele>
      </trkpt>
      <trkpt lat="41.7391953" lon="123.4226590">
        <ele>40.2</ele>
      </trkpt>
      <trkpt lat="41.7391829" lon="123.4231456">
        <ele>40.1</ele>
      </trkpt>
      <trkpt lat="41.7391829" lon="123.4231456">
        <ele>40.1</ele>
      </trkpt>
      <trkpt lat="41.7391891" lon="123.4241408">
        <ele>40.0</ele>
      </trkpt>
      <trkpt lat="41.7391891" lon="123.4241408">
        <ele>40.0</ele>
      </trkpt>
      <trkpt lat="41.7392030" lon="123.4248447">
        <ele>39.9</ele>
      </trkpt>
      <trkpt lat="41.7392692" lon="123.4258270">
        <ele>39.8</ele>
      </trkpt>
      <trkpt lat="41.7392692" lon="123.4258270">
        <ele>39.8</ele>
      </trkpt>
      <trkpt lat="41.7393130" lon="123.4264308">
        <ele>39.8</ele>
      </trkpt>
      <trkpt lat="41.7394102" lon="123.4273130">
        <ele>39.7</ele>
      </trkpt>
      <trkpt lat="41.7394102" lon="123.4273130">
        <ele>39.7</ele>
      </trkpt>
      <trkpt lat="41.7395152" lon="123.4280220">
        <ele>39.6</ele>
      </trkpt>
      <trkpt lat="41.7395152" lon="123.4280220">
        <ele>39.6</ele>
      </trkpt>
      <trkpt lat="41.7396372" lon="123.4287691">
        <ele>39.5</ele>
      </trkpt>
      <trkpt lat="41.7396372" lon="123.4287691">
        <ele>39.5</ele>
      </trkpt>
      <trkpt lat="41.7398215" lon="123.4296345">
        <ele>39.4</ele>
      </trkpt>
      <trkpt lat="41.7398215" lon="123.4296345">
        <ele>39.4</ele>
      </trkpt>
      <trkpt lat="41.7398607" lon="123.4298167">
        <ele>39.4</ele>
      </trkpt>
      <trkpt lat="41.7398607" lon="123.4298167">
        <ele>39.4</ele>
      </trkpt>
      <trkpt lat="41.7398779" lon="123.4299299">
        <ele>39.4</ele>
      </trkpt>
      <trkpt lat="41.7398779" lon="123.4299299">
        <ele>39.4</ele>
      </trkpt>
      <trkpt lat="41.7400009" lon="123.4305910">
        <ele>39.3</ele>
      </trkpt>
      <trkpt lat="41.7400009" lon="123.4305910">
        <ele>39.3</ele>
      </trkpt>
      <trkpt lat="41.7400745" lon="123.4309956">
        <ele>39.3</ele>
      </trkpt>
      <trkpt lat="41.7400745" lon="123.4309956">
        <ele>39.3</ele>
      </trkpt>
      <trkpt lat="41.7402013" lon="123.4315696">
        <ele>39.2</ele>
      </trkpt>
      <trkpt lat="41.7404194" lon="123.4322817">
        <ele>39.1</ele>
      </trkpt>
      <trkpt lat="41.7404194" lon="123.4322817">
        <ele>39.1</ele>
      </trkpt>
      <trkpt lat="41.7406244" lon="123.4329078">
        <ele>39.0</ele>
      </trkpt>
      <trkpt lat="41.7407509" lon="123.4332123">
        <ele>39.0</ele>
      </trkpt>
      <trkpt lat="41.7407509" lon="123.4332123">
        <ele>39.0</ele>
      </trkpt>
      <trkpt lat="41.7408251" lon="123.4333736">
        <ele>39.0</ele>
      </trkpt>
      <trkpt lat="41.7421310" lon="123.4357648">
        <ele>38.7</ele>
      </trkpt>
      <trkpt lat="41.7421310" lon="123.4357648">
        <ele>38.7</ele>
      </trkpt>
      <trkpt lat="41.7423918" lon="123.4362427">
        <ele>38.6</ele>
      </trkpt>
      <trkpt lat="41.7423918" lon="123.4362427">
        <ele>38.6</ele>
      </trkpt>
      <trkpt lat="41.7424048" lon="123.4362688">
        <ele>38.6</ele>
      </trkpt>
      <trkpt lat="41.7424830" lon="123.4363690">
        <ele>38.6</ele>
      </trkpt>
      <trkpt lat="41.7428785" lon="123.4366955">
        <ele>38.5</ele>
      </trkpt>
      <trkpt lat="41.7430659" lon="123.4368949">
        <ele>38.5</ele>
      </trkpt>
      <trkpt lat="41.7431882" lon="123.4370652">
        <ele>38.5</ele>
      </trkpt>
      <trkpt lat="41.7433748" lon="123.4374169">
        <ele>38.4</ele>
      </trkpt>
      <trkpt lat="41.7433748" lon="123.4374169">
        <ele>38.4</ele>
      </trkpt>
      <trkpt lat="41.7439406" lon="123.4384650">
        <ele>38.3</ele>
      </trkpt>
      <trkpt lat="41.7439677" lon="123.4385090">
        <ele>38.3</ele>
      </trkpt>
      <trkpt lat="41.7444722" lon="123.4393738">
        <ele>38.1</ele>
      </trkpt>
      <trkpt lat="41.7447209" lon="123.4402787">
        <ele>38.0</ele>
      </trkpt>
      <trkpt lat="41.7447209" lon="123.4402787">
        <ele>38.0</ele>
      </trkpt>
      <trkpt lat="41.7447473" lon="123.4404751">
        <ele>38.0</ele>
      </trkpt>
      <trkpt lat="41.7447346" lon="123.4406525">
        <ele>38.0</ele>
      </trkpt>
      <trkpt lat="41.7447346" lon="123.4406525">
        <ele>38.0</ele>
      </trkpt>
      <trkpt lat="41.7447346" lon="123.4406525">
        <ele>38.0</ele>
      </trkpt>
    </trkseg>
  </trk>
</gpx>