<?xml version="1.0" encoding="UTF-8"?>
<gpx xmlns="http://www.topografix.com/GPX/1/1" xmlns:xsi="http://www.w3.org/2001/XMLSchema-instance" version="1.1" creator="FitAnalyzer/1.0" xsi:schemaLocation="http://www.topografix.com/GPX/1/1 http://www.topografix.com/GPX/1/1/gpx.xsd">
  <metadata>
    <name>规划路线</name>
    <desc>距离 18.64km，爬升 169.0m，爬坡 0 段</desc>
  </metadata>
  <trk>
    <name>规划路线</name>
    <trkseg>
      <trkpt lat="41.7498423" lon="123.4380252">
        <ele>44.0</ele>
      </trkpt>
      <trkpt lat="41.7498813" lon="123.4380422">
        <ele>44.0</ele>
      </trkpt>
      <trkpt lat="41.7499425" lon="123.4381334">
        <ele>44.0</ele>
      </trkpt>
      <trkpt lat="41.7499425" lon="123.4381334">
        <ele>44.0</ele>
      </trkpt>
      <trkpt lat="41.7500466" lon="123.4382126">
        <ele>44.0</ele>
      </trkpt>
      <trkpt lat="41.7500466" lon="123.4382126">
        <ele>44.0</ele>
      </trkpt>
      <trkpt lat="41.7500597" lon="123.4382426">
        <ele>44.0</ele>
      </trkpt>
      <trkpt lat="41.7500818" lon="123.4382907">
        <ele>44.0</ele>
      </trkpt>
      <trkpt lat="41.7500818" lon="123.4382907">
        <ele>44.0</ele>
      </trkpt>
      <trkpt lat="41.7503387" lon="123.4388258">
        <ele>44.0</ele>
      </trkpt>
      <trkpt lat="41.7504129" lon="123.4389300">
        <ele>44.0</ele>
      </trkpt>
      <trkpt lat="41.7504871" lon="123.4390342">
        <ele>44.0</ele>
      </trkpt>
      <trkpt lat="41.7504871" lon="123.4390342">
        <ele>44.0</ele>
      </trkpt>
      <trkpt lat="41.7507607" lon="123.4393558">
        <ele>44.8</ele>
      </trkpt>
      <trkpt lat="41.7507607" lon="123.4393558">
        <ele>44.8</ele>
      </trkpt>
      <trkpt lat="41.7508348" lon="123.4394390">
        <ele>45.0</ele>
      </trkpt>
      <trkpt lat="41.7508959" lon="123.4394991">
        <ele>45.0</ele>
      </trkpt>
      <trkpt lat="41.7510694" lon="123.4397476">
        <ele>45.0</ele>
      </trkpt>
      <trkpt lat="41.7510694" lon="123.4397476">
        <ele>45.0</ele>
      </trkpt>
      <trkpt lat="41.7513914" lon="123.4403038">
        <ele>44.2</ele>
      </trkpt>
      <trkpt lat="41.7514706" lon="123.4404431">
        <ele>44.0</ele>
      </trkpt>
      <trkpt lat="41.7514706" lon="123.4404431">
        <ele>44.0</ele>
      </trkpt>
      <trkpt lat="41.7516753" lon="123.4407738">
        <ele>44.8</ele>
      </trkpt>
      <trkpt lat="41.7516753" lon="123.4407738">
        <ele>44.8</ele>
      </trkpt>
      <trkpt lat="41.7517094" lon="123.4408389">
        <ele>45.0</ele>
      </trkpt>
      <trkpt lat="41.7521407" lon="123.4415484">
        <ele>45.0</ele>
      </trkpt>
      <trkpt lat="41.7521407" lon="123.4415484">
        <ele>45.0</ele>
      </trkpt>
      <trkpt lat="41.7521578" lon="123.4415745">
        <ele>45.0</ele>
      </trkpt>
      <trkpt lat="41.7523152" lon="123.4418260">
        <ele>44.2</ele>
      </trkpt>
      <trkpt lat="41.7523803" lon="123.4418871">
        <ele>44.0</ele>
      </trkpt>
      <trkpt lat="41.7523803" lon="123.4418871">
        <ele>44.0</ele>
      </trkpt>
      <trkpt lat="41.7524064" lon="123.4419092">
        <ele>44.2</ele>
      </trkpt>
      <trkpt lat="41.7526838" lon="123.4421356">
        <ele>46.0</ele>
      </trkpt>
      <trkpt lat="41.7526838" lon="123.4421356">
        <ele>46.0</ele>
      </trkpt>
      <trkpt lat="41.7528450" lon="123.4422569">
        <ele>46.0</ele>
      </trkpt>
      <trkpt lat="41.7528450" lon="123.4422569">
        <ele>46.0</ele>
      </trkpt>
      <trkpt lat="41.7529151" lon="123.4423090">
        <ele>46.0</ele>
      </trkpt>
      <trkpt lat="41.7529322" lon="123.4423220">
        <ele>46.0</ele>
      </trkpt>
      <trkpt lat="41.7529322" lon="123.4423220">
        <ele>46.0</ele>
      </trkpt>
      <trkpt lat="41.7530193" lon="123.4423831">
        <ele>46.0</ele>
      </trkpt>
      <trkpt lat="41.7530193" lon="123.4423831">
        <ele>46.0</ele>
      </trkpt>
      <trkpt lat="41.7536231" lon="123.4428311">
        <ele>47.8</ele>
      </trkpt>
      <trkpt lat="41.7536882" lon="123.4428832">
        <ele>48.0</ele>
      </trkpt>
      <trkpt lat="41.7536882" lon="123.4428832">
        <ele>48.0</ele>
      </trkpt>
      <trkpt lat="41.7541228" lon="123.4432009">
        <ele>48.0</ele>
      </trkpt>
      <trkpt lat="41.7541228" lon="123.4432009">
        <ele>48.0</ele>
      </trkpt>
      <trkpt lat="41.7542360" lon="123.4432830">
        <ele>47.4</ele>
      </trkpt>
      <trkpt lat="41.7542360" lon="123.4432830">
        <ele>47.4</ele>
      </trkpt>
      <trkpt lat="41.7545224" lon="123.4435005">
        <ele>46.0</ele>
      </trkpt>
      <trkpt lat="41.7546095" lon="123.4435747">
        <ele>46.0</ele>
      </trkpt>
      <trkpt lat="41.7546095" lon="123.4435747">
        <ele>46.0</ele>
      </trkpt>
      <trkpt lat="41.7547709" lon="123.4437751">
        <ele>46.0</ele>
      </trkpt>
      <trkpt lat="41.7548271" lon="123.4438964">
        <ele>46.8</ele>
      </trkpt>
      <trkpt lat="41.7548754" lon="123.4440056">
        <ele>47.4</ele>
      </trkpt>
      <trkpt lat="41.7550586" lon="123.4446271">
        <ele>51.0</ele>
      </trkpt>
      <trkpt lat="41.7550586" lon="123.4446271">
        <ele>51.0</ele>
      </trkpt>
      <trkpt lat="41.7552641" lon="123.4453758">
        <ele>51.0</ele>
      </trkpt>
      <trkpt lat="41.7552641" lon="123.4453758">
        <ele>51.0</ele>
      </trkpt>
      <trkpt lat="41.7554697" lon="123.4461246">
        <ele>49.1</ele>
      </trkpt>
      <trkpt lat="41.7556455" lon="123.4470078">
        <ele>47.0</ele>
      </trkpt>
      <trkpt lat="41.7556455" lon="123.4470078">
        <ele>47.0</ele>
      </trkpt>
      <trkpt lat="41.7556678" lon="123.4471160">
        <ele>47.0</ele>
      </trkpt>
      <trkpt lat="41.7556759" lon="123.4471772">
        <ele>47.0</ele>
      </trkpt>
      <trkpt lat="41.7556759" lon="123.4471772">
        <ele>47.0</ele>
      </trkpt>
      <trkpt lat="41.7557335" lon="123.4474428">
        <ele>48.5</ele>
      </trkpt>
      <trkpt lat="41.7557550" lon="123.4477165">
        <ele>50.0</ele>
      </trkpt>
      <trkpt lat="41.7557550" lon="123.4477165">
        <ele>50.0</ele>
      </trkpt>
      <trkpt lat="41.7557491" lon="123.4486830">
        <ele>50.8</ele>
      </trkpt>
      <trkpt lat="41.7557491" lon="123.4486830">
        <ele>50.8</ele>
      </trkpt>
      <trkpt lat="41.7557448" lon="123.4490048">
        <ele>51.0</ele>
      </trkpt>
      <trkpt lat="41.7557448" lon="123.4490048">
        <ele>51.0</ele>
      </trkpt>
      <trkpt lat="41.7557449" lon="123.4490349">
        <ele>51.0</ele>
      </trkpt>
      <trkpt lat="41.7557409" lon="123.4490349">
        <ele>51.0</ele>
      </trkpt>
      <trkpt lat="41.7557415" lon="123.4493226">
        <ele>48.6</ele>
      </trkpt>
      <trkpt lat="41.7557415" lon="123.4493226">
        <ele>48.6</ele>
      </trkpt>
      <trkpt lat="41.7557420" lon="123.4495181">
        <ele>47.0</ele>
      </trkpt>
      <trkpt lat="41.7557420" lon="123.4495181">
        <ele>47.0</ele>
      </trkpt>
      <trkpt lat="41.7557339" lon="123.4499533">
        <ele>47.0</ele>
      </trkpt>
      <trkpt lat="41.7557339" lon="123.4499533">
        <ele>47.0</ele>
      </trkpt>
      <trkpt lat="41.7557273" lon="123.4505629">
        <ele>46.2</ele>
      </trkpt>
      <trkpt lat="41.7557273" lon="123.4505629">
        <ele>46.2</ele>
      </trkpt>
      <trkpt lat="41.7557277" lon="123.4507323">
        <ele>46.0</ele>
      </trkpt>
      <trkpt lat="41.7557227" lon="123.4507323">
        <ele>46.0</ele>
      </trkpt>
      <trkpt lat="41.7557240" lon="123.4513370">
        <ele>47.1</ele>
      </trkpt>
      <trkpt lat="41.7558188" lon="123.4529694">
        <ele>50.0</ele>
      </trkpt>
      <trkpt lat="41.7558188" lon="123.4529694">
        <ele>50.0</ele>
      </trkpt>
      <trkpt lat="41.7559129" lon="123.4538829">
        <ele>50.0</ele>
      </trkpt>
      <trkpt lat="41.7559436" lon="123.4541787">
        <ele>50.0</ele>
      </trkpt>
      <trkpt lat="41.7559436" lon="123.4541787">
        <ele>50.0</ele>
      </trkpt>
      <trkpt lat="41.7559569" lon="123.4543141">
        <ele>50.0</ele>
      </trkpt>
      <trkpt lat="41.7559569" lon="123.4543141">
        <ele>50.0</ele>
      </trkpt>
      <trkpt lat="41.7560233" lon="123.4548847">
        <ele>48.5</ele>
      </trkpt>
      <trkpt lat="41.7560233" lon="123.4548847">
        <ele>48.5</ele>
      </trkpt>
      <trkpt lat="41.7560987" lon="123.4554844">
        <ele>47.0</ele>
      </trkpt>
      <trkpt lat="41.7560987" lon="123.4554844">
        <ele>47.0</ele>
      </trkpt>
      <trkpt lat="41.7561608" lon="123.4559287">
        <ele>47.0</ele>
      </trkpt>
      <trkpt lat="41.7561608" lon="123.4559287">
        <ele>47.0</ele>
      </trkpt>
      <trkpt lat="41.7562443" lon="123.4565645">
        <ele>47.0</ele>
      </trkpt>
      <trkpt lat="41.7562443" lon="123.4565645">
        <ele>47.0</ele>
      </trkpt>
      <trkpt lat="41.7562483" lon="123.4565735">
        <ele>47.0</ele>
      </trkpt>
      <trkpt lat="41.7562891" lon="123.4568995">
        <ele>47.0</ele>
      </trkpt>
      <trkpt lat="41.7562891" lon="123.4568995">
        <ele>47.0</ele>
      </trkpt>
      <trkpt lat="41.7563329" lon="123.4572214">
        <ele>47.0</ele>
      </trkpt>
      <trkpt lat="41.7563329" lon="123.4572214">
        <ele>47.0</ele>
      </trkpt>
      <trkpt lat="41.7563502" lon="123.4573347">
        <ele>47.0</ele>
      </trkpt>
      <trkpt lat="41.7563502" lon="123.4573347">
        <ele>47.0</ele>
      </trkpt>
      <trkpt lat="41.7563592" lon="123.4573347">
        <ele>47.0</ele>
      </trkpt>
      <trkpt lat="41.7563552" lon="123.4573347">
        <ele>47.0</ele>
      </trkpt>
      <trkpt lat="41.7563552" lon="123.4573347">
        <ele>47.0</ele>
      </trkpt>
      <trkpt lat="41.7562722" lon="123.4573568">
        <ele>47.0</ele>
      </trkpt>
      <trkpt lat="41.7562073" lon="123.4573919">
        <ele>47.0</ele>
      </trkpt>
      <trkpt lat="41.7562073" lon="123.4573919">
        <ele>47.0</ele>
      </trkpt>
      <trkpt lat="41.7561166" lon="123.4574963">
        <ele>46.1</ele>
      </trkpt>
      <trkpt lat="41.7561126" lon="123.4575043">
        <ele>46.0</ele>
      </trkpt>
      <trkpt lat="41.7561076" lon="123.4575043">
        <ele>46.0</ele>
      </trkpt>
      <trkpt lat="41.7560648" lon="123.4575915">
        <ele>46.0</ele>
      </trkpt>
      <trkpt lat="41.7560341" lon="123.4577269">
        <ele>46.0</ele>
      </trkpt>
      <trkpt lat="41.7560264" lon="123.4578272">
        <ele>46.0</ele>
      </trkpt>
      <trkpt lat="41.7560214" lon="123.4578272">
        <ele>46.0</ele>
      </trkpt>
      <trkpt lat="41.7560214" lon="123.4578443">
        <ele>46.0</ele>
      </trkpt>
      <trkpt lat="41.7560214" lon="123.4578443">
        <ele>46.0</ele>
      </trkpt>
      <trkpt lat="41.7560307" lon="123.4579486">
        <ele>46.0</ele>
      </trkpt>
      <trkpt lat="41.7560610" lon="123.4580880">
        <ele>46.0</ele>
      </trkpt>
      <trkpt lat="41.7561052" lon="123.4581753">
        <ele>46.0</ele>
      </trkpt>
      <trkpt lat="41.7561093" lon="123.4581793">
        <ele>46.0</ele>
      </trkpt>
      <trkpt lat="41.7561795" lon="123.4582705">
        <ele>46.0</ele>
      </trkpt>
      <trkpt lat="41.7561795" lon="123.4582705">
        <ele>46.0</ele>
      </trkpt>
      <trkpt lat="41.7561705" lon="123.4582966">
        <ele>46.6</ele>
      </trkpt>
      <trkpt lat="41.7561406" lon="123.4583407">
        <ele>47.9</ele>
      </trkpt>
      <trkpt lat="41.7561356" lon="123.4583407">
        <ele>48.0</ele>
      </trkpt>
      <trkpt lat="41.7559375" lon="123.4586758">
        <ele>47.1</ele>
      </trkpt>
      <trkpt lat="41.7559325" lon="123.4586758">
        <ele>47.1</ele>
      </trkpt>
      <trkpt lat="41.7554794" lon="123.4594331">
        <ele>45.0</ele>
      </trkpt>
      <trkpt lat="41.7554744" lon="123.4594331">
        <ele>45.0</ele>
      </trkpt>
      <trkpt lat="41.7548909" lon="123.4603951">
        <ele>45.0</ele>
      </trkpt>
      <trkpt lat="41.7548869" lon="123.4603951">
        <ele>45.0</ele>
      </trkpt>
      <trkpt lat="41.7547614" lon="123.4606048">
        <ele>44.5</ele>
      </trkpt>
      <trkpt lat="41.7547614" lon="123.4606048">
        <ele>44.5</ele>
      </trkpt>
      <trkpt lat="41.7546191" lon="123.4608616">
        <ele>44.0</ele>
      </trkpt>
      <trkpt lat="41.7546141" lon="123.4608616">
        <ele>44.0</ele>
      </trkpt>
      <trkpt lat="41.7545803" lon="123.4609268">
        <ele>44.0</ele>
      </trkpt>
      <trkpt lat="41.7545803" lon="123.4609268">
        <ele>44.0</ele>
      </trkpt>
      <trkpt lat="41.7544594" lon="123.4613662">
        <ele>44.0</ele>
      </trkpt>
      <trkpt lat="41.7544554" lon="123.4613662">
        <ele>44.0</ele>
      </trkpt>
      <trkpt lat="41.7544554" lon="123.4613792">
        <ele>44.0</ele>
      </trkpt>
      <trkpt lat="41.7541460" lon="123.4627686">
        <ele>44.9</ele>
      </trkpt>
      <trkpt lat="41.7541420" lon="123.4627686">
        <ele>44.9</ele>
      </trkpt>
      <trkpt lat="41.7541075" lon="123.4629471">
        <ele>45.0</ele>
      </trkpt>
      <trkpt lat="41.7541075" lon="123.4629471">
        <ele>45.0</ele>
      </trkpt>
      <trkpt lat="41.7538931" lon="123.4639614">
        <ele>45.0</ele>
      </trkpt>
      <trkpt lat="41.7537902" lon="123.4643486">
        <ele>45.0</ele>
      </trkpt>
      <trkpt lat="41.7537733" lon="123.4643968">
        <ele>45.0</ele>
      </trkpt>
      <trkpt lat="41.7537683" lon="123.4643968">
        <ele>45.0</ele>
      </trkpt>
      <trkpt lat="41.7536312" lon="123.4647238">
        <ele>45.0</ele>
      </trkpt>
      <trkpt lat="41.7534060" lon="123.4650278">
        <ele>45.0</ele>
      </trkpt>
      <trkpt lat="41.7534060" lon="123.4650278">
        <ele>45.0</ele>
      </trkpt>
      <trkpt lat="41.7533412" lon="123.4651201">
        <ele>45.0</ele>
      </trkpt>
      <trkpt lat="41.7532716" lon="123.4652546">
        <ele>44.6</ele>
      </trkpt>
      <trkpt lat="41.7532716" lon="123.4652546">
        <ele>44.6</ele>
      </trkpt>
      <trkpt lat="41.7532161" lon="123.4654462">
        <ele>44.0</ele>
      </trkpt>
      <trkpt lat="41.7532121" lon="123.4654462">
        <ele>44.0</ele>
      </trkpt>
      <trkpt lat="41.7532122" lon="123.4654633">
        <ele>44.0</ele>
      </trkpt>
      <trkpt lat="41.7532122" lon="123.4654633">
        <ele>44.0</ele>
      </trkpt>
      <trkpt lat="41.7532033" lon="123.4655335">
        <ele>44.4</ele>
      </trkpt>
      <trkpt lat="41.7532033" lon="123.4655335">
        <ele>44.4</ele>
      </trkpt>
      <trkpt lat="41.7531822" lon="123.4658465">
        <ele>46.0</ele>
      </trkpt>
      <trkpt lat="41.7531822" lon="123.4658465">
        <ele>46.0</ele>
      </trkpt>
      <trkpt lat="41.7531534" lon="123.4663080">
        <ele>46.0</ele>
      </trkpt>
      <trkpt lat="41.7531534" lon="123.4663080">
        <ele>46.0</ele>
      </trkpt>
      <trkpt lat="41.7531362" lon="123.4666090">
        <ele>46.0</ele>
      </trkpt>
      <trkpt lat="41.7531322" lon="123.4666090">
        <ele>46.0</ele>
      </trkpt>
      <trkpt lat="41.7531286" lon="123.4667434">
        <ele>46.0</ele>
      </trkpt>
      <trkpt lat="41.7531286" lon="123.4667434">
        <ele>46.0</ele>
      </trkpt>
      <trkpt lat="41.7531081" lon="123.4673273">
        <ele>46.0</ele>
      </trkpt>
      <trkpt lat="41.7531081" lon="123.4673273">
        <ele>46.0</ele>
      </trkpt>
      <trkpt lat="41.7530936" lon="123.4682504">
        <ele>44.1</ele>
      </trkpt>
      <trkpt lat="41.7530936" lon="123.4682504">
        <ele>44.1</ele>
      </trkpt>
      <trkpt lat="41.7530938" lon="123.4682985">
        <ele>44.0</ele>
      </trkpt>
      <trkpt lat="41.7530888" lon="123.4682985">
        <ele>44.0</ele>
      </trkpt>
      <trkpt lat="41.7531236" lon="123.4697183">
        <ele>46.8</ele>
      </trkpt>
      <trkpt lat="41.7531280" lon="123.4698316">
        <ele>47.0</ele>
      </trkpt>
      <trkpt lat="41.7531280" lon="123.4698316">
        <ele>47.0</ele>
      </trkpt>
      <trkpt lat="41.7531928" lon="123.4712203">
        <ele>46.0</ele>
      </trkpt>
      <trkpt lat="41.7531928" lon="123.4712203">
        <ele>46.0</ele>
      </trkpt>
      <trkpt lat="41.7532289" lon="123.4716347">
        <ele>45.2</ele>
      </trkpt>
      <trkpt lat="41.7532372" lon="123.4717340">
        <ele>45.0</ele>
      </trkpt>
      <trkpt lat="41.7532372" lon="123.4717340">
        <ele>45.0</ele>
      </trkpt>
      <trkpt lat="41.7532465" lon="123.4718304">
        <ele>45.2</ele>
      </trkpt>
      <trkpt lat="41.7532465" lon="123.4718304">
        <ele>45.2</ele>
      </trkpt>
      <trkpt lat="41.7533801" lon="123.4731499">
        <ele>48.0</ele>
      </trkpt>
      <trkpt lat="41.7533801" lon="123.4731499">
        <ele>48.0</ele>
      </trkpt>
      <trkpt lat="41.7534201" lon="123.4734770">
        <ele>47.2</ele>
      </trkpt>
      <trkpt lat="41.7534253" lon="123.4735502">
        <ele>47.0</ele>
      </trkpt>
      <trkpt lat="41.7534253" lon="123.4735502">
        <ele>47.0</ele>
      </trkpt>
      <trkpt lat="41.7534733" lon="123.4739034">
        <ele>47.0</ele>
      </trkpt>
      <trkpt lat="41.7534733" lon="123.4739034">
        <ele>47.0</ele>
      </trkpt>
      <trkpt lat="41.7535353" lon="123.4742908">
        <ele>44.4</ele>
      </trkpt>
      <trkpt lat="41.7535353" lon="123.4742908">
        <ele>44.4</ele>
      </trkpt>
      <trkpt lat="41.7535750" lon="123.4745085">
        <ele>43.0</ele>
      </trkpt>
      <trkpt lat="41.7535750" lon="123.4745085">
        <ele>43.0</ele>
      </trkpt>
      <trkpt lat="41.7536238" lon="123.4748136">
        <ele>44.0</ele>
      </trkpt>
      <trkpt lat="41.7536768" lon="123.4751487">
        <ele>45.0</ele>
      </trkpt>
      <trkpt lat="41.7536768" lon="123.4751487">
        <ele>45.0</ele>
      </trkpt>
      <trkpt lat="41.7537336" lon="123.4754498">
        <ele>45.0</ele>
      </trkpt>
      <trkpt lat="41.7537336" lon="123.4754498">
        <ele>45.0</ele>
      </trkpt>
      <trkpt lat="41.7537865" lon="123.4757759">
        <ele>45.5</ele>
      </trkpt>
      <trkpt lat="41.7537865" lon="123.4757759">
        <ele>45.5</ele>
      </trkpt>
      <trkpt lat="41.7538354" lon="123.4760679">
        <ele>46.0</ele>
      </trkpt>
      <trkpt lat="41.7538751" lon="123.4763118">
        <ele>46.2</ele>
      </trkpt>
      <trkpt lat="41.7538751" lon="123.4763118">
        <ele>46.2</ele>
      </trkpt>
      <trkpt lat="41.7540337" lon="123.4772260">
        <ele>47.0</ele>
      </trkpt>
      <trkpt lat="41.7540337" lon="123.4772260">
        <ele>47.0</ele>
      </trkpt>
      <trkpt lat="41.7540520" lon="123.4773444">
        <ele>47.0</ele>
      </trkpt>
      <trkpt lat="41.7540520" lon="123.4773444">
        <ele>47.0</ele>
      </trkpt>
      <trkpt lat="41.7540877" lon="123.4775752">
        <ele>44.3</ele>
      </trkpt>
      <trkpt lat="41.7540917" lon="123.4775963">
        <ele>44.0</ele>
      </trkpt>
      <trkpt lat="41.7540917" lon="123.4775963">
        <ele>44.0</ele>
      </trkpt>
      <trkpt lat="41.7541446" lon="123.4779194">
        <ele>45.6</ele>
      </trkpt>
      <trkpt lat="41.7541446" lon="123.4779194">
        <ele>45.6</ele>
      </trkpt>
      <trkpt lat="41.7541844" lon="123.4781894">
        <ele>47.0</ele>
      </trkpt>
      <trkpt lat="41.7541844" lon="123.4781894">
        <ele>47.0</ele>
      </trkpt>
      <trkpt lat="41.7542689" lon="123.4787032">
        <ele>46.0</ele>
      </trkpt>
      <trkpt lat="41.7542689" lon="123.4787032">
        <ele>46.0</ele>
      </trkpt>
      <trkpt lat="41.7542954" lon="123.4788688">
        <ele>46.1</ele>
      </trkpt>
      <trkpt lat="41.7545376" lon="123.4803410">
        <ele>47.1</ele>
      </trkpt>
      <trkpt lat="41.7547636" lon="123.4817169">
        <ele>48.0</ele>
      </trkpt>
      <trkpt lat="41.7547636" lon="123.4817169">
        <ele>48.0</ele>
      </trkpt>
      <trkpt lat="41.7549399" lon="123.4828630">
        <ele>48.0</ele>
      </trkpt>
      <trkpt lat="41.7549399" lon="123.4828630">
        <ele>48.0</ele>
      </trkpt>
      <trkpt lat="41.7551475" lon="123.4840694">
        <ele>47.3</ele>
      </trkpt>
      <trkpt lat="41.7551475" lon="123.4840694">
        <ele>47.3</ele>
      </trkpt>
      <trkpt lat="41.7552534" lon="123.4847137">
        <ele>47.0</ele>
      </trkpt>
      <trkpt lat="41.7552534" lon="123.4847137">
        <ele>47.0</ele>
      </trkpt>
      <trkpt lat="41.7554526" lon="123.4858077">
        <ele>48.9</ele>
      </trkpt>
      <trkpt lat="41.7554607" lon="123.4858558">
        <ele>49.0</ele>
      </trkpt>
      <trkpt lat="41.7554607" lon="123.4858558">
        <ele>49.0</ele>
      </trkpt>
      <trkpt lat="41.7554831" lon="123.4859903">
        <ele>49.0</ele>
      </trkpt>
      <trkpt lat="41.7554831" lon="123.4859903">
        <ele>49.0</ele>
      </trkpt>
      <trkpt lat="41.7560088" lon="123.4889351">
        <ele>52.0</ele>
      </trkpt>
      <trkpt lat="41.7560088" lon="123.4889351">
        <ele>52.0</ele>
      </trkpt>
      <trkpt lat="41.7561767" lon="123.4899066">
        <ele>53.0</ele>
      </trkpt>
      <trkpt lat="41.7561808" lon="123.4899367">
        <ele>52.5</ele>
      </trkpt>
      <trkpt lat="41.7561808" lon="123.4899367">
        <ele>52.5</ele>
      </trkpt>
      <trkpt lat="41.7561810" lon="123.4900241">
        <ele>51.0</ele>
      </trkpt>
      <trkpt lat="41.7561810" lon="123.4900241">
        <ele>51.0</ele>
      </trkpt>
      <trkpt lat="41.7561773" lon="123.4901114">
        <ele>51.0</ele>
      </trkpt>
      <trkpt lat="41.7561773" lon="123.4901114">
        <ele>51.0</ele>
      </trkpt>
      <trkpt lat="41.7561562" lon="123.4904336">
        <ele>51.4</ele>
      </trkpt>
      <trkpt lat="41.7561562" lon="123.4904336">
        <ele>51.4</ele>
      </trkpt>
      <trkpt lat="41.7560409" lon="123.4909786">
        <ele>52.0</ele>
      </trkpt>
      <trkpt lat="41.7560198" lon="123.4913008">
        <ele>52.0</ele>
      </trkpt>
      <trkpt lat="41.7560198" lon="123.4913008">
        <ele>52.0</ele>
      </trkpt>
      <trkpt lat="41.7560372" lon="123.4914182">
        <ele>52.0</ele>
      </trkpt>
      <trkpt lat="41.7560767" lon="123.4915969">
        <ele>52.3</ele>
      </trkpt>
      <trkpt lat="41.7560767" lon="123.4915969">
        <ele>52.3</ele>
      </trkpt>
      <trkpt lat="41.7561781" lon="123.4920626">
        <ele>53.0</ele>
      </trkpt>
      <trkpt lat="41.7563794" lon="123.4925032">
        <ele>51.5</ele>
      </trkpt>
      <trkpt lat="41.7564148" lon="123.4926508">
        <ele>51.1</ele>
      </trkpt>
      <trkpt lat="41.7565080" lon="123.4933654">
        <ele>49.0</ele>
      </trkpt>
      <trkpt lat="41.7565606" lon="123.4935832">
        <ele>49.8</ele>
      </trkpt>
      <trkpt lat="41.7566568" lon="123.4939756">
        <ele>51.2</ele>
      </trkpt>
      <trkpt lat="41.7567483" lon="123.4941583">
        <ele>52.0</ele>
      </trkpt>
      <trkpt lat="41.7567704" lon="123.4942065">
        <ele>52.2</ele>
      </trkpt>
      <trkpt lat="41.7567796" lon="123.4942547">
        <ele>52.4</ele>
      </trkpt>
      <trkpt lat="41.7567931" lon="123.4944152">
        <ele>53.0</ele>
      </trkpt>
      <trkpt lat="41.7567762" lon="123.4947816">
        <ele>53.0</ele>
      </trkpt>
      <trkpt lat="41.7567762" lon="123.4947816">
        <ele>53.0</ele>
      </trkpt>
      <trkpt lat="41.7567687" lon="123.4949512">
        <ele>53.0</ele>
      </trkpt>
      <trkpt lat="41.7567637" lon="123.4949512">
        <ele>53.0</ele>
      </trkpt>
      <trkpt lat="41.7567600" lon="123.4950737">
        <ele>52.1</ele>
      </trkpt>
      <trkpt lat="41.7567305" lon="123.4952343">
        <ele>51.0</ele>
      </trkpt>
      <trkpt lat="41.7567308" lon="123.4953477">
        <ele>51.0</ele>
      </trkpt>
      <trkpt lat="41.7567741" lon="123.4954310">
        <ele>51.0</ele>
      </trkpt>
      <trkpt lat="41.7568002" lon="123.4954742">
        <ele>51.0</ele>
      </trkpt>
      <trkpt lat="41.7568874" lon="123.4955434">
        <ele>51.0</ele>
      </trkpt>
      <trkpt lat="41.7570049" lon="123.4957090">
        <ele>51.0</ele>
      </trkpt>
      <trkpt lat="41.7570180" lon="123.4957482">
        <ele>51.0</ele>
      </trkpt>
      <trkpt lat="41.7571057" lon="123.4959790">
        <ele>51.0</ele>
      </trkpt>
      <trkpt lat="41.7572087" lon="123.4969897">
        <ele>51.0</ele>
      </trkpt>
      <trkpt lat="41.7574443" lon="123.4975177">
        <ele>51.0</ele>
      </trkpt>
      <trkpt lat="41.7576013" lon="123.4978609">
        <ele>52.0</ele>
      </trkpt>
      <trkpt lat="41.7577892" lon="123.4981710">
        <ele>53.0</ele>
      </trkpt>
      <trkpt lat="41.7579722" lon="123.4985193">
        <ele>54.0</ele>
      </trkpt>
      <trkpt lat="41.7581730" lon="123.4987762">
        <ele>54.7</ele>
      </trkpt>
      <trkpt lat="41.7582556" lon="123.4989900">
        <ele>55.2</ele>
      </trkpt>
      <trkpt lat="41.7584047" lon="123.4993684">
        <ele>56.0</ele>
      </trkpt>
      <trkpt lat="41.7586846" lon="123.5000268">
        <ele>55.3</ele>
      </trkpt>
      <trkpt lat="41.7586846" lon="123.5000268">
        <ele>55.3</ele>
      </trkpt>
      <trkpt lat="41.7587933" lon="123.5002576">
        <ele>55.0</ele>
      </trkpt>
      <trkpt lat="41.7594740" lon="123.5015333">
        <ele>55.8</ele>
      </trkpt>
      <trkpt lat="41.7595534" lon="123.5016597">
        <ele>55.9</ele>
      </trkpt>
      <trkpt lat="41.7597269" lon="123.5018343">
        <ele>56.0</ele>
      </trkpt>
      <trkpt lat="41.7599969" lon="123.5021695">
        <ele>56.7</ele>
      </trkpt>
      <trkpt lat="41.7600362" lon="123.5022649">
        <ele>56.8</ele>
      </trkpt>
      <trkpt lat="41.7600675" lon="123.5023964">
        <ele>57.0</ele>
      </trkpt>
      <trkpt lat="41.7600757" lon="123.5024355">
        <ele>57.0</ele>
      </trkpt>
      <trkpt lat="41.7601151" lon="123.5025830">
        <ele>57.0</ele>
      </trkpt>
      <trkpt lat="41.7606041" lon="123.5032886">
        <ele>57.0</ele>
      </trkpt>
      <trkpt lat="41.7608435" lon="123.5037633">
        <ele>56.4</ele>
      </trkpt>
      <trkpt lat="41.7610354" lon="123.5040814">
        <ele>56.0</ele>
      </trkpt>
      <trkpt lat="41.7610445" lon="123.5040945">
        <ele>56.0</ele>
      </trkpt>
      <trkpt lat="41.7611187" lon="123.5041818">
        <ele>56.0</ele>
      </trkpt>
      <trkpt lat="41.7612100" lon="123.5042651">
        <ele>56.0</ele>
      </trkpt>
      <trkpt lat="41.7614233" lon="123.5043825">
        <ele>56.0</ele>
      </trkpt>
      <trkpt lat="41.7614233" lon="123.5043825">
        <ele>56.0</ele>
      </trkpt>
      <trkpt lat="41.7616972" lon="123.5046876">
        <ele>54.7</ele>
      </trkpt>
      <trkpt lat="41.7618147" lon="123.5048612">
        <ele>54.0</ele>
      </trkpt>
      <trkpt lat="41.7619283" lon="123.5050659">
        <ele>54.4</ele>
      </trkpt>
      <trkpt lat="41.7619454" lon="123.5051141">
        <ele>54.5</ele>
      </trkpt>
      <trkpt lat="41.7620372" lon="123.5053800">
        <ele>55.0</ele>
      </trkpt>
      <trkpt lat="41.7620814" lon="123.5054583">
        <ele>55.0</ele>
      </trkpt>
      <trkpt lat="41.7621727" lon="123.5055627">
        <ele>55.0</ele>
      </trkpt>
      <trkpt lat="41.7623943" lon="123.5057674">
        <ele>55.0</ele>
      </trkpt>
      <trkpt lat="41.7626605" lon="123.5061990">
        <ele>54.4</ele>
      </trkpt>
      <trkpt lat="41.7628091" lon="123.5063906">
        <ele>54.1</ele>
      </trkpt>
      <trkpt lat="41.7628873" lon="123.5064639">
        <ele>54.0</ele>
      </trkpt>
      <trkpt lat="41.7628873" lon="123.5064639">
        <ele>54.0</ele>
      </trkpt>
      <trkpt lat="41.7629745" lon="123.5065341">
        <ele>54.0</ele>
      </trkpt>
      <trkpt lat="41.7629915" lon="123.5065472">
        <ele>54.0</ele>
      </trkpt>
      <trkpt lat="41.7632911" lon="123.5067348">
        <ele>54.3</ele>
      </trkpt>
      <trkpt lat="41.7636309" lon="123.5070439">
        <ele>54.8</ele>
      </trkpt>
      <trkpt lat="41.7638572" lon="123.5071442">
        <ele>55.0</ele>
      </trkpt>
      <trkpt lat="41.7638572" lon="123.5071442">
        <ele>55.0</ele>
      </trkpt>
      <trkpt lat="41.7642177" lon="123.5073008">
        <ele>52.2</ele>
      </trkpt>
      <trkpt lat="41.7644961" lon="123.5074703">
        <ele>50.0</ele>
      </trkpt>
      <trkpt lat="41.7644961" lon="123.5074743">
        <ele>50.0</ele>
      </trkpt>
      <trkpt lat="41.7647747" lon="123.5076750">
        <ele>51.7</ele>
      </trkpt>
      <trkpt lat="41.7649831" lon="123.5078105">
        <ele>53.0</ele>
      </trkpt>
      <trkpt lat="41.7650522" lon="123.5078446">
        <ele>53.0</ele>
      </trkpt>
      <trkpt lat="41.7652693" lon="123.5078797">
        <ele>53.0</ele>
      </trkpt>
      <trkpt lat="41.7653604" lon="123.5079148">
        <ele>53.0</ele>
      </trkpt>
      <trkpt lat="41.7655869" lon="123.5081065">
        <ele>50.6</ele>
      </trkpt>
      <trkpt lat="41.7656961" lon="123.5081717">
        <ele>49.5</ele>
      </trkpt>
      <trkpt lat="41.7658483" lon="123.5082369">
        <ele>48.0</ele>
      </trkpt>
      <trkpt lat="41.7658483" lon="123.5082369">
        <ele>48.0</ele>
      </trkpt>
      <trkpt lat="41.7677991" lon="123.5092644">
        <ele>53.6</ele>
      </trkpt>
      <trkpt lat="41.7679513" lon="123.5093386">
        <ele>54.0</ele>
      </trkpt>
      <trkpt lat="41.7681215" lon="123.5093998">
        <ele>54.0</ele>
      </trkpt>
      <trkpt lat="41.7681905" lon="123.5094169">
        <ele>54.0</ele>
      </trkpt>
      <trkpt lat="41.7684635" lon="123.5093907">
        <ele>54.0</ele>
      </trkpt>
      <trkpt lat="41.7685115" lon="123.5093998">
        <ele>54.0</ele>
      </trkpt>
      <trkpt lat="41.7685685" lon="123.5094078">
        <ele>54.0</ele>
      </trkpt>
      <trkpt lat="41.7686937" lon="123.5094740">
        <ele>54.0</ele>
      </trkpt>
      <trkpt lat="41.7695552" lon="123.5100138">
        <ele>54.0</ele>
      </trkpt>
      <trkpt lat="41.7704332" lon="123.5103881">
        <ele>54.0</ele>
      </trkpt>
      <trkpt lat="41.7704332" lon="123.5103881">
        <ele>54.0</ele>
      </trkpt>
      <trkpt lat="41.7707066" lon="123.5105185">
        <ele>54.0</ele>
      </trkpt>
      <trkpt lat="41.7709589" lon="123.5106359">
        <ele>54.0</ele>
      </trkpt>
      <trkpt lat="41.7712670" lon="123.5106750">
        <ele>54.0</ele>
      </trkpt>
      <trkpt lat="41.7714672" lon="123.5107623">
        <ele>54.0</ele>
      </trkpt>
      <trkpt lat="41.7719672" lon="123.5111064">
        <ele>54.0</ele>
      </trkpt>
      <trkpt lat="41.7721403" lon="123.5111636">
        <ele>54.0</ele>
      </trkpt>
      <trkpt lat="41.7723107" lon="123.5113111">
        <ele>53.6</ele>
      </trkpt>
      <trkpt lat="41.7727234" lon="123.5115469">
        <ele>52.7</ele>
      </trkpt>
      <trkpt lat="41.7730541" lon="123.5117817">
        <ele>52.0</ele>
      </trkpt>
      <trkpt lat="41.7731411" lon="123.5117947">
        <ele>52.0</ele>
      </trkpt>
      <trkpt lat="41.7732360" lon="123.5117596">
        <ele>52.0</ele>
      </trkpt>
      <trkpt lat="41.7732877" lon="123.5116773">
        <ele>52.0</ele>
      </trkpt>
      <trkpt lat="41.7733701" lon="123.5114595">
        <ele>51.2</ele>
      </trkpt>
      <trkpt lat="41.7733701" lon="123.5114595">
        <ele>51.2</ele>
      </trkpt>
      <trkpt lat="41.7733999" lon="123.5114023">
        <ele>51.0</ele>
      </trkpt>
      <trkpt lat="41.7734607" lon="123.5113330">
        <ele>51.0</ele>
      </trkpt>
      <trkpt lat="41.7734607" lon="123.5113290">
        <ele>51.0</ele>
      </trkpt>
      <trkpt lat="41.7734687" lon="123.5113200">
        <ele>51.0</ele>
      </trkpt>
      <trkpt lat="41.7735735" lon="123.5112547">
        <ele>51.0</ele>
      </trkpt>
      <trkpt lat="41.7735735" lon="123.5112497">
        <ele>51.0</ele>
      </trkpt>
      <trkpt lat="41.7741295" lon="123.5116160">
        <ele>51.0</ele>
      </trkpt>
      <trkpt lat="41.7742598" lon="123.5117032">
        <ele>52.9</ele>
      </trkpt>
      <trkpt lat="41.7742598" lon="123.5117032">
        <ele>52.9</ele>
      </trkpt>
      <trkpt lat="41.7743339" lon="123.5117554">
        <ele>54.0</ele>
      </trkpt>
      <trkpt lat="41.7743339" lon="123.5117554">
        <ele>54.0</ele>
      </trkpt>
      <trkpt lat="41.7746425" lon="123.5119561">
        <ele>54.0</ele>
      </trkpt>
      <trkpt lat="41.7747907" lon="123.5120253">
        <ele>54.0</ele>
      </trkpt>
      <trkpt lat="41.7747907" lon="123.5120253">
        <ele>54.0</ele>
      </trkpt>
      <trkpt lat="41.7750820" lon="123.5121557">
        <ele>51.1</ele>
      </trkpt>
      <trkpt lat="41.7751991" lon="123.5121999">
        <ele>50.0</ele>
      </trkpt>
      <trkpt lat="41.7758248" lon="123.5124346">
        <ele>53.2</ele>
      </trkpt>
      <trkpt lat="41.7760419" lon="123.5124958">
        <ele>54.3</ele>
      </trkpt>
      <trkpt lat="41.7761939" lon="123.5124958">
        <ele>55.0</ele>
      </trkpt>
      <trkpt lat="41.7765885" lon="123.5123432">
        <ele>52.7</ele>
      </trkpt>
      <trkpt lat="41.7765884" lon="123.5123382">
        <ele>52.7</ele>
      </trkpt>
      <trkpt lat="41.7767146" lon="123.5123914">
        <ele>52.0</ele>
      </trkpt>
      <trkpt lat="41.7776233" lon="123.5130054">
        <ele>52.0</ele>
      </trkpt>
      <trkpt lat="41.7781141" lon="123.5133094">
        <ele>52.0</ele>
      </trkpt>
      <trkpt lat="41.7781272" lon="123.5133185">
        <ele>52.0</ele>
      </trkpt>
      <trkpt lat="41.7783446" lon="123.5134670">
        <ele>53.5</ele>
      </trkpt>
      <trkpt lat="41.7784319" lon="123.5135753">
        <ele>54.3</ele>
      </trkpt>
      <trkpt lat="41.7785678" lon="123.5138974">
        <ele>56.0</ele>
      </trkpt>
      <trkpt lat="41.7786592" lon="123.5140550">
        <ele>55.5</ele>
      </trkpt>
      <trkpt lat="41.7787987" lon="123.5142196">
        <ele>54.8</ele>
      </trkpt>
      <trkpt lat="41.7789723" lon="123.5144333">
        <ele>54.0</ele>
      </trkpt>
      <trkpt lat="41.7794295" lon="123.5148688">
        <ele>52.8</ele>
      </trkpt>
      <trkpt lat="41.7795076" lon="123.5149340">
        <ele>52.6</ele>
      </trkpt>
      <trkpt lat="41.7797550" lon="123.5150784">
        <ele>52.0</ele>
      </trkpt>
      <trkpt lat="41.7800853" lon="123.5151777">
        <ele>52.4</ele>
      </trkpt>
      <trkpt lat="41.7804507" lon="123.5153222">
        <ele>52.8</ele>
      </trkpt>
      <trkpt lat="41.7806420" lon="123.5154265">
        <ele>53.0</ele>
      </trkpt>
      <trkpt lat="41.7814633" lon="123.5159051">
        <ele>54.3</ele>
      </trkpt>
      <trkpt lat="41.7818370" lon="123.5161670">
        <ele>54.9</ele>
      </trkpt>
      <trkpt lat="41.7818981" lon="123.5162061">
        <ele>55.0</ele>
      </trkpt>
      <trkpt lat="41.7819983" lon="123.5162924">
        <ele>55.0</ele>
      </trkpt>
      <trkpt lat="41.7820897" lon="123.5164278">
        <ele>55.0</ele>
      </trkpt>
      <trkpt lat="41.7821211" lon="123.5165844">
        <ele>55.0</ele>
      </trkpt>
      <trkpt lat="41.7821213" lon="123.5166496">
        <ele>54.7</ele>
      </trkpt>
      <trkpt lat="41.7820741" lon="123.5169326">
        <ele>53.4</ele>
      </trkpt>
      <trkpt lat="41.7819275" lon="123.5174293">
        <ele>51.0</ele>
      </trkpt>
      <trkpt lat="41.7818331" lon="123.5176732">
        <ele>51.0</ele>
      </trkpt>
      <trkpt lat="41.7818244" lon="123.5177565">
        <ele>51.0</ele>
      </trkpt>
      <trkpt lat="41.7818244" lon="123.5177645">
        <ele>51.0</ele>
      </trkpt>
      <trkpt lat="41.7818204" lon="123.5177645">
        <ele>51.0</ele>
      </trkpt>
      <trkpt lat="41.7818548" lon="123.5179000">
        <ele>51.0</ele>
      </trkpt>
      <trkpt lat="41.7820519" lon="123.5183184">
        <ele>51.0</ele>
      </trkpt>
      <trkpt lat="41.7821913" lon="123.5184749">
        <ele>51.0</ele>
      </trkpt>
      <trkpt lat="41.7823736" lon="123.5185702">
        <ele>51.0</ele>
      </trkpt>
      <trkpt lat="41.7825129" lon="123.5186755">
        <ele>51.0</ele>
      </trkpt>
      <trkpt lat="41.7826914" lon="123.5188842">
        <ele>51.2</ele>
      </trkpt>
      <trkpt lat="41.7827826" lon="123.5189535">
        <ele>51.4</ele>
      </trkpt>
      <trkpt lat="41.7833693" lon="123.5192153">
        <ele>52.0</ele>
      </trkpt>
      <trkpt lat="41.7835735" lon="123.5192764">
        <ele>52.0</ele>
      </trkpt>
      <trkpt lat="41.7838295" lon="123.5193065">
        <ele>52.0</ele>
      </trkpt>
      <trkpt lat="41.7838295" lon="123.5193065">
        <ele>52.0</ele>
      </trkpt>
      <trkpt lat="41.7840598" lon="123.5194068">
        <ele>52.0</ele>
      </trkpt>
      <trkpt lat="41.7840948" lon="123.5194108">
        <ele>52.0</ele>
      </trkpt>
      <trkpt lat="41.7841468" lon="123.5194148">
        <ele>52.0</ele>
      </trkpt>
      <trkpt lat="41.7842248" lon="123.5194018">
        <ele>51.9</ele>
      </trkpt>
      <trkpt lat="41.7843546" lon="123.5193235">
        <ele>51.7</ele>
      </trkpt>
      <trkpt lat="41.7847656" lon="123.5189753">
        <ele>51.0</ele>
      </trkpt>
      <trkpt lat="41.7850222" lon="123.5188227">
        <ele>51.0</ele>
      </trkpt>
      <trkpt lat="41.7850221" lon="123.5188187">
        <ele>51.0</ele>
      </trkpt>
      <trkpt lat="41.7850619" lon="123.5190886">
        <ele>51.0</ele>
      </trkpt>
      <trkpt lat="41.7850753" lon="123.5192582">
        <ele>50.9</ele>
      </trkpt>
      <trkpt lat="41.7849558" lon="123.5201603">
        <ele>50.2</ele>
      </trkpt>
      <trkpt lat="41.7849527" lon="123.5204994">
        <ele>50.0</ele>
      </trkpt>
      <trkpt lat="41.7849477" lon="123.5204994">
        <ele>50.0</ele>
      </trkpt>
      <trkpt lat="41.7849410" lon="123.5209790">
        <ele>50.0</ele>
      </trkpt>
      <trkpt lat="41.7849889" lon="123.5213051">
        <ele>50.0</ele>
      </trkpt>
      <trkpt lat="41.7852479" lon="123.5220626">
        <ele>53.7</ele>
      </trkpt>
      <trkpt lat="41.7852876" lon="123.5223114">
        <ele>54.8</ele>
      </trkpt>
      <trkpt lat="41.7853143" lon="123.5225894">
        <ele>56.0</ele>
      </trkpt>
      <trkpt lat="41.7853149" lon="123.5228121">
        <ele>55.0</ele>
      </trkpt>
      <trkpt lat="41.7851814" lon="123.5233910">
        <ele>52.4</ele>
      </trkpt>
      <trkpt lat="41.7851432" lon="123.5236960">
        <ele>51.0</ele>
      </trkpt>
      <trkpt lat="41.7851398" lon="123.5239228">
        <ele>49.2</ele>
      </trkpt>
      <trkpt lat="41.7851712" lon="123.5244405">
        <ele>45.0</ele>
      </trkpt>
      <trkpt lat="41.7851885" lon="123.5245669">
        <ele>44.0</ele>
      </trkpt>
      <trkpt lat="41.7852018" lon="123.5246803">
        <ele>44.0</ele>
      </trkpt>
      <trkpt lat="41.7852772" lon="123.5252070">
        <ele>44.0</ele>
      </trkpt>
      <trkpt lat="41.7853782" lon="123.5256163">
        <ele>44.0</ele>
      </trkpt>
      <trkpt lat="41.7856412" lon="123.5263917">
        <ele>44.0</ele>
      </trkpt>
      <trkpt lat="41.7862027" lon="123.5273878">
        <ele>44.0</ele>
      </trkpt>
      <trkpt lat="41.7862730" lon="123.5274972">
        <ele>44.0</ele>
      </trkpt>
      <trkpt lat="41.7865078" lon="123.5278021">
        <ele>44.0</ele>
      </trkpt>
      <trkpt lat="41.7865600" lon="123.5279155">
        <ele>44.0</ele>
      </trkpt>
      <trkpt lat="41.7866216" lon="123.5281412">
        <ele>44.0</ele>
      </trkpt>
      <trkpt lat="41.7866834" lon="123.5284722">
        <ele>44.0</ele>
      </trkpt>
      <trkpt lat="41.7867671" lon="123.5291383">
        <ele>44.0</ele>
      </trkpt>
      <trkpt lat="41.7868459" lon="123.5294522">
        <ele>44.0</ele>
      </trkpt>
      <trkpt lat="41.7869334" lon="123.5296519">
        <ele>44.0</ele>
      </trkpt>
      <trkpt lat="41.7871027" lon="123.5298043">
        <ele>44.0</ele>
      </trkpt>
      <trkpt lat="41.7873422" lon="123.5299788">
        <ele>44.0</ele>
      </trkpt>
      <trkpt lat="41.7879939" lon="123.5302967">
        <ele>48.5</ele>
      </trkpt>
      <trkpt lat="41.7880070" lon="123.5303097">
        <ele>48.6</ele>
      </trkpt>
      <trkpt lat="41.7880591" lon="123.5303659">
        <ele>49.0</ele>
      </trkpt>
      <trkpt lat="41.7880903" lon="123.5304492">
        <ele>49.0</ele>
      </trkpt>
      <trkpt lat="41.7885800" lon="123.5336618">
        <ele>49.8</ele>
      </trkpt>
      <trkpt lat="41.7887596" lon="123.5347590">
        <ele>50.0</ele>
      </trkpt>
      <trkpt lat="41.7888697" lon="123.5352413">
        <ele>50.5</ele>
      </trkpt>
      <trkpt lat="41.7894015" lon="123.5364688">
        <ele>51.8</ele>
      </trkpt>
      <trkpt lat="41.7898431" lon="123.5376049">
        <ele>53.0</ele>
      </trkpt>
      <trkpt lat="41.7901960" lon="123.5384934">
        <ele>52.2</ele>
      </trkpt>
      <trkpt lat="41.7906504" lon="123.5395943">
        <ele>51.3</ele>
      </trkpt>
      <trkpt lat="41.7907421" lon="123.5398981">
        <ele>51.0</ele>
      </trkpt>
      <trkpt lat="41.7907512" lon="123.5399292">
        <ele>51.2</ele>
      </trkpt>
      <trkpt lat="41.7907512" lon="123.5399292">
        <ele>51.2</ele>
      </trkpt>
      <trkpt lat="41.7907385" lon="123.5400896">
        <ele>52.0</ele>
      </trkpt>
      <trkpt lat="41.7905052" lon="123.5408688">
        <ele>53.7</ele>
      </trkpt>
      <trkpt lat="41.7904973" lon="123.5409259">
        <ele>53.8</ele>
      </trkpt>
      <trkpt lat="41.7905055" lon="123.5410081">
        <ele>54.0</ele>
      </trkpt>
      <trkpt lat="41.7907672" lon="123.5413690">
        <ele>54.0</ele>
      </trkpt>
      <trkpt lat="41.7907883" lon="123.5413951">
        <ele>54.0</ele>
      </trkpt>
      <trkpt lat="41.7910710" lon="123.5417219">
        <ele>54.0</ele>
      </trkpt>
      <trkpt lat="41.7911806" lon="123.5420137">
        <ele>54.0</ele>
      </trkpt>
      <trkpt lat="41.7912373" lon="123.5423355">
        <ele>54.0</ele>
      </trkpt>
      <trkpt lat="41.7912815" lon="123.5424488">
        <ele>54.0</ele>
      </trkpt>
      <trkpt lat="41.7912986" lon="123.5424879">
        <ele>53.8</ele>
      </trkpt>
      <trkpt lat="41.7914639" lon="123.5426403">
        <ele>52.6</ele>
      </trkpt>
      <trkpt lat="41.7915211" lon="123.5427355">
        <ele>52.0</ele>
      </trkpt>
      <trkpt lat="41.7915552" lon="123.5428187">
        <ele>51.1</ele>
      </trkpt>
      <trkpt lat="41.7916209" lon="123.5431145">
        <ele>48.1</ele>
      </trkpt>
      <trkpt lat="41.7916655" lon="123.5434273">
        <ele>45.0</ele>
      </trkpt>
      <trkpt lat="41.7916659" lon="123.5436368">
        <ele>45.0</ele>
      </trkpt>
      <trkpt lat="41.7917184" lon="123.5438754">
        <ele>45.0</ele>
      </trkpt>
      <trkpt lat="41.7918709" lon="123.5441110">
        <ele>45.0</ele>
      </trkpt>
      <trkpt lat="41.7922799" lon="123.5446503">
        <ele>49.2</ele>
      </trkpt>
      <trkpt lat="41.7923933" lon="123.5448377">
        <ele>50.5</ele>
      </trkpt>
      <trkpt lat="41.7924325" lon="123.5449109">
        <ele>51.0</ele>
      </trkpt>
      <trkpt lat="41.7926066" lon="123.5455033">
        <ele>53.0</ele>
      </trkpt>
      <trkpt lat="41.7928245" lon="123.5459554">
        <ele>54.7</ele>
      </trkpt>
      <trkpt lat="41.7928467" lon="123.5460596">
        <ele>55.0</ele>
      </trkpt>
      <trkpt lat="41.7928469" lon="123.5461298">
        <ele>55.0</ele>
      </trkpt>
      <trkpt lat="41.7928305" lon="123.5464776">
        <ele>55.0</ele>
      </trkpt>
      <trkpt lat="41.7928180" lon="123.5467212">
        <ele>55.0</ele>
      </trkpt>
      <trkpt lat="41.7928484" lon="123.5469257">
        <ele>55.0</ele>
      </trkpt>
      <trkpt lat="41.7929007" lon="123.5471001">
        <ele>55.0</ele>
      </trkpt>
      <trkpt lat="41.7929700" lon="123.5472384">
        <ele>55.0</ele>
      </trkpt>
      <trkpt lat="41.7930231" lon="123.5472996">
        <ele>55.0</ele>
      </trkpt>
      <trkpt lat="41.7931443" lon="123.5474299">
        <ele>55.0</ele>
      </trkpt>
      <trkpt lat="41.7933486" lon="123.5475652">
        <ele>55.0</ele>
      </trkpt>
      <trkpt lat="41.7933486" lon="123.5475652">
        <ele>55.0</ele>
      </trkpt>
      <trkpt lat="41.7935358" lon="123.5476824">
        <ele>55.0</ele>
      </trkpt>
      <trkpt lat="41.7937611" lon="123.5478608">
        <ele>55.0</ele>
      </trkpt>
      <trkpt lat="41.7939747" lon="123.5481825">
        <ele>54.1</ele>
      </trkpt>
      <trkpt lat="41.7941105" lon="123.5485834">
        <ele>53.2</ele>
      </trkpt>
      <trkpt lat="41.7941626" lon="123.5486616">
        <ele>53.0</ele>
      </trkpt>
      <trkpt lat="41.7942707" lon="123.5487267">
        <ele>53.0</ele>
      </trkpt>
      <trkpt lat="41.7946529" lon="123.5488049">
        <ele>53.0</ele>
      </trkpt>
      <trkpt lat="41.7948140" lon="123.5488740">
        <ele>53.0</ele>
      </trkpt>
      <trkpt lat="41.7952917" lon="123.5492438">
        <ele>50.0</ele>
      </trkpt>
      <trkpt lat="41.7952917" lon="123.5492438">
        <ele>50.0</ele>
      </trkpt>
      <trkpt lat="41.7952917" lon="123.5492488">
        <ele>50.0</ele>
      </trkpt>
      <trkpt lat="41.7962504" lon="123.5513273">
        <ele>51.1</ele>
      </trkpt>
      <trkpt lat="41.7971253" lon="123.5530588">
        <ele>52.0</ele>
      </trkpt>
      <trkpt lat="41.7971914" lon="123.5531109">
        <ele>52.0</ele>
      </trkpt>
      <trkpt lat="41.7972954" lon="123.5531370">
        <ele>51.9</ele>
      </trkpt>
      <trkpt lat="41.7978464" lon="123.5530978">
        <ele>51.3</ele>
      </trkpt>
      <trkpt lat="41.7980894" lon="123.5531068">
        <ele>51.0</ele>
      </trkpt>
      <trkpt lat="41.7987238" lon="123.5534023">
        <ele>51.9</ele>
      </trkpt>
      <trkpt lat="41.7987799" lon="123.5534624">
        <ele>52.0</ele>
      </trkpt>
      <trkpt lat="41.7987930" lon="123.5534805">
        <ele>52.0</ele>
      </trkpt>
      <trkpt lat="41.7988281" lon="123.5535366">
        <ele>52.0</ele>
      </trkpt>
      <trkpt lat="41.7988934" lon="123.5537149">
        <ele>52.0</ele>
      </trkpt>
      <trkpt lat="41.7988934" lon="123.5537149">
        <ele>52.0</ele>
      </trkpt>
      <trkpt lat="41.7991676" lon="123.5544504">
        <ele>48.1</ele>
      </trkpt>
      <trkpt lat="41.7992419" lon="123.5546848">
        <ele>46.9</ele>
      </trkpt>
      <trkpt lat="41.7992772" lon="123.5548802">
        <ele>46.0</ele>
      </trkpt>
      <trkpt lat="41.7992775" lon="123.5550416">
        <ele>46.0</ele>
      </trkpt>
      <trkpt lat="41.7992477" lon="123.5551808">
        <ele>46.0</ele>
      </trkpt>
      <trkpt lat="41.7992388" lon="123.5552029">
        <ele>46.0</ele>
      </trkpt>
      <trkpt lat="41.7992338" lon="123.5552029">
        <ele>46.1</ele>
      </trkpt>
      <trkpt lat="41.7990046" lon="123.5557289">
        <ele>51.8</ele>
      </trkpt>
      <trkpt lat="41.7988929" lon="123.5559153">
        <ele>54.0</ele>
      </trkpt>
      <trkpt lat="41.7987232" lon="123.5561157">
        <ele>54.0</ele>
      </trkpt>
      <trkpt lat="41.7986025" lon="123.5563111">
        <ele>54.0</ele>
      </trkpt>
      <trkpt lat="41.7985637" lon="123.5564073">
        <ele>54.0</ele>
      </trkpt>
      <trkpt lat="41.7985769" lon="123.5565676">
        <ele>54.7</ele>
      </trkpt>
      <trkpt lat="41.7986904" lon="123.5568812">
        <ele>56.1</ele>
      </trkpt>
      <trkpt lat="41.7987857" lon="123.5570635">
        <ele>57.0</ele>
      </trkpt>
      <trkpt lat="41.7989640" lon="123.5572899">
        <ele>56.7</ele>
      </trkpt>
      <trkpt lat="41.7990602" lon="123.5574111">
        <ele>56.5</ele>
      </trkpt>
      <trkpt lat="41.7992598" lon="123.5578198">
        <ele>56.0</ele>
      </trkpt>
      <trkpt lat="41.7994255" lon="123.5582726">
        <ele>55.4</ele>
      </trkpt>
      <trkpt lat="41.7997474" lon="123.5589378">
        <ele>54.3</ele>
      </trkpt>
      <trkpt lat="41.8001047" lon="123.5598503">
        <ele>53.0</ele>
      </trkpt>
      <trkpt lat="41.8002220" lon="123.5600807">
        <ele>53.5</ele>
      </trkpt>
      <trkpt lat="41.8003573" lon="123.5602770">
        <ele>54.0</ele>
      </trkpt>
      <trkpt lat="41.8007487" lon="123.5605544">
        <ele>55.0</ele>
      </trkpt>
      <trkpt lat="41.8008739" lon="123.5607067">
        <ele>54.6</ele>
      </trkpt>
      <trkpt lat="41.8009791" lon="123.5608379">
        <ele>54.2</ele>
      </trkpt>
      <trkpt lat="41.8013746" lon="123.5612415">
        <ele>53.0</ele>
      </trkpt>
      <trkpt lat="41.8015699" lon="123.5614718">
        <ele>51.8</ele>
      </trkpt>
      <trkpt lat="41.8015699" lon="123.5614718">
        <ele>51.8</ele>
      </trkpt>
      <trkpt lat="41.8017001" lon="123.5616281">
        <ele>51.0</ele>
      </trkpt>
      <trkpt lat="41.8019175" lon="123.5619375">
        <ele>51.6</ele>
      </trkpt>
      <trkpt lat="41.8020217" lon="123.5620497">
        <ele>51.8</ele>
      </trkpt>
      <trkpt lat="41.8020917" lon="123.5621068">
        <ele>52.0</ele>
      </trkpt>
      <trkpt lat="41.8021828" lon="123.5621809">
        <ele>50.8</ele>
      </trkpt>
      <trkpt lat="41.8022959" lon="123.5622590">
        <ele>49.4</ele>
      </trkpt>
      <trkpt lat="41.8027732" lon="123.5624502">
        <ele>44.0</ele>
      </trkpt>
      <trkpt lat="41.8029683" lon="123.5625804">
        <ele>44.4</ele>
      </trkpt>
      <trkpt lat="41.8036733" lon="123.5633365">
        <ele>46.0</ele>
      </trkpt>
      <trkpt lat="41.8036733" lon="123.5633365">
        <ele>46.0</ele>
      </trkpt>
      <trkpt lat="41.8039687" lon="123.5636800">
        <ele>47.4</ele>
      </trkpt>
      <trkpt lat="41.8043422" lon="123.5640885">
        <ele>49.1</ele>
      </trkpt>
      <trkpt lat="41.8045594" lon="123.5642798">
        <ele>50.0</ele>
      </trkpt>
      <trkpt lat="41.8054323" lon="123.5650488">
        <ele>55.3</ele>
      </trkpt>
      <trkpt lat="41.8054323" lon="123.5650488">
        <ele>55.3</ele>
      </trkpt>
      <trkpt lat="41.8058628" lon="123.5654533">
        <ele>58.0</ele>
      </trkpt>
      <trkpt lat="41.8064625" lon="123.5660621">
        <ele>58.3</ele>
      </trkpt>
      <trkpt lat="41.8074618" lon="123.5672345">
        <ele>58.7</ele>
      </trkpt>
      <trkpt lat="41.8080706" lon="123.5680435">
        <ele>59.0</ele>
      </trkpt>
      <trkpt lat="41.8083881" lon="123.5684860">
        <ele>58.8</ele>
      </trkpt>
      <trkpt lat="41.8090310" lon="123.5693990">
        <ele>58.5</ele>
      </trkpt>
      <trkpt lat="41.8098701" lon="123.5705852">
        <ele>58.0</ele>
      </trkpt>
      <trkpt lat="41.8105350" lon="123.5715932">
        <ele>57.3</ele>
      </trkpt>
      <trkpt lat="41.8107564" lon="123.5719796">
        <ele>57.1</ele>
      </trkpt>
      <trkpt lat="41.8108135" lon="123.5721278">
        <ele>57.0</ele>
      </trkpt>
      <trkpt lat="41.8108567" lon="123.5723230">
        <ele>55.9</ele>
      </trkpt>
      <trkpt lat="41.8108567" lon="123.5723230">
        <ele>55.9</ele>
      </trkpt>
      <trkpt lat="41.8108868" lon="123.5724921">
        <ele>55.0</ele>
      </trkpt>
      <trkpt lat="41.8109350" lon="123.5727484">
        <ele>54.4</ele>
      </trkpt>
      <trkpt lat="41.8109350" lon="123.5727484">
        <ele>54.4</ele>
      </trkpt>
      <trkpt lat="41.8108015" lon="123.5733089">
        <ele>53.0</ele>
      </trkpt>
      <trkpt lat="41.8107886" lon="123.5733960">
        <ele>53.5</ele>
      </trkpt>
      <trkpt lat="41.8108097" lon="123.5735522">
        <ele>54.4</ele>
      </trkpt>
      <trkpt lat="41.8109139" lon="123.5737954">
        <ele>56.0</ele>
      </trkpt>
      <trkpt lat="41.8109139" lon="123.5737954">
        <ele>56.0</ele>
      </trkpt>
      <trkpt lat="41.8110141" lon="123.5739916">
        <ele>56.1</ele>
      </trkpt>
      <trkpt lat="41.8111313" lon="123.5743298">
        <ele>56.3</ele>
      </trkpt>
      <trkpt lat="41.8111403" lon="123.5743469">
        <ele>56.3</ele>
      </trkpt>
      <trkpt lat="41.8111884" lon="123.5744389">
        <ele>56.4</ele>
      </trkpt>
      <trkpt lat="41.8112575" lon="123.5745300">
        <ele>56.4</ele>
      </trkpt>
      <trkpt lat="41.8113886" lon="123.5746601">
        <ele>56.6</ele>
      </trkpt>
      <trkpt lat="41.8116187" lon="123.5748082">
        <ele>56.7</ele>
      </trkpt>
      <trkpt lat="41.8116187" lon="123.5748082">
        <ele>56.7</ele>
      </trkpt>
      <trkpt lat="41.8117397" lon="123.5748772">
        <ele>56.8</ele>
      </trkpt>
      <trkpt lat="41.8118748" lon="123.5749773">
        <ele>56.9</ele>
      </trkpt>
      <trkpt lat="41.8119398" lon="123.5750253">
        <ele>57.0</ele>
      </trkpt>
      <trkpt lat="41.8119398" lon="123.5750253">
        <ele>57.0</ele>
      </trkpt>
      <trkpt lat="41.8123003" lon="123.5756979">
        <ele>57.4</ele>
      </trkpt>
      <trkpt lat="41.8124265" lon="123.5759410">
        <ele>57.5</ele>
      </trkpt>
      <trkpt lat="41.8124265" lon="123.5759410">
        <ele>57.5</ele>
      </trkpt>
      <trkpt lat="41.8125176" lon="123.5760851">
        <ele>57.6</ele>
      </trkpt>
      <trkpt lat="41.8125176" lon="123.5760851">
        <ele>57.6</ele>
      </trkpt>
      <trkpt lat="41.8129041" lon="123.5767756">
        <ele>58.1</ele>
      </trkpt>
      <trkpt lat="41.8129041" lon="123.5767756">
        <ele>58.1</ele>
      </trkpt>
      <trkpt lat="41.8129952" lon="123.5769407">
        <ele>58.2</ele>
      </trkpt>
      <trkpt lat="41.8131303" lon="123.5771269">
        <ele>58.3</ele>
      </trkpt>
      <trkpt lat="41.8135556" lon="123.5775611">
        <ele>58.7</ele>
      </trkpt>
      <trkpt lat="41.8135556" lon="123.5775611">
        <ele>58.7</ele>
      </trkpt>
      <trkpt lat="41.8138117" lon="123.5778303">
        <ele>58.9</ele>
      </trkpt>
      <trkpt lat="41.8142642" lon="123.5785817">
        <ele>59.4</ele>
      </trkpt>
      <trkpt lat="41.8142642" lon="123.5785817">
        <ele>59.4</ele>
      </trkpt>
      <trkpt lat="41.8154243" lon="123.5807528">
        <ele>60.8</ele>
      </trkpt>
      <trkpt lat="41.8155764" lon="123.5810400">
        <ele>60.9</ele>
      </trkpt>
      <trkpt lat="41.8155764" lon="123.5810400">
        <ele>60.9</ele>
      </trkpt>
      <trkpt lat="41.8157286" lon="123.5813521">
        <ele>61.1</ele>
      </trkpt>
      <trkpt lat="41.8157286" lon="123.5813521">
        <ele>61.1</ele>
      </trkpt>
      <trkpt lat="41.8159888" lon="123.5818603">
        <ele>61.4</ele>
      </trkpt>
      <trkpt lat="41.8165664" lon="123.5833498">
        <ele>62.3</ele>
      </trkpt>
      <trkpt lat="41.8165664" lon="123.5833498">
        <ele>62.3</ele>
      </trkpt>
      <trkpt lat="41.8166795" lon="123.5835539">
        <ele>62.4</ele>
      </trkpt>
      <trkpt lat="41.8168796" lon="123.5838490">
        <ele>62.6</ele>
      </trkpt>
      <trkpt lat="41.8169746" lon="123.5839660">
        <ele>62.7</ele>
      </trkpt>
      <trkpt lat="41.8171487" lon="123.5841350">
        <ele>62.9</ele>
      </trkpt>
      <trkpt lat="41.8175568" lon="123.5844781">
        <ele>63.2</ele>
      </trkpt>
      <trkpt lat="41.8176998" lon="123.5845781">
        <ele>63.3</ele>
      </trkpt>
      <trkpt lat="41.8178518" lon="123.5846521">
        <ele>63.4</ele>
      </trkpt>
      <trkpt lat="41.8179778" lon="123.5846911">
        <ele>63.5</ele>
      </trkpt>
      <trkpt lat="41.8191499" lon="123.5848950">
        <ele>64.3</ele>
      </trkpt>
      <trkpt lat="41.8191499" lon="123.5848950">
        <ele>64.3</ele>
      </trkpt>
      <trkpt lat="41.8201829" lon="123.5850859">
        <ele>65.0</ele>
      </trkpt>
      <trkpt lat="41.8205040" lon="123.5851899">
        <ele>65.2</ele>
      </trkpt>
      <trkpt lat="41.8206250" lon="123.5852899">
        <ele>65.3</ele>
      </trkpt>
      <trkpt lat="41.8207560" lon="123.5854719">
        <ele>65.5</ele>
      </trkpt>
      <trkpt lat="41.8210642" lon="123.5860190">
        <ele>65.8</ele>
      </trkpt>
      <trkpt lat="41.8211982" lon="123.5862190">
        <ele>65.9</ele>
      </trkpt>
      <trkpt lat="41.8211982" lon="123.5862190">
        <ele>65.9</ele>
      </trkpt>
      <trkpt lat="41.8214804" lon="123.5867661">
        <ele>66.3</ele>
      </trkpt>
      <trkpt lat="41.8216194" lon="123.5869961">
        <ele>66.4</ele>
      </trkpt>
      <trkpt lat="41.8219275" lon="123.5874211">
        <ele>66.7</ele>
      </trkpt>
      <trkpt lat="41.8219275" lon="123.5874211">
        <ele>66.7</ele>
      </trkpt>
      <trkpt lat="41.8221976" lon="123.5878292">
        <ele>67.0</ele>
      </trkpt>
      <trkpt lat="41.8223016" lon="123.5880202">
        <ele>67.1</ele>
      </trkpt>
      <trkpt lat="41.8228658" lon="123.5893612">
        <ele>67.9</ele>
      </trkpt>
      <trkpt lat="41.8229308" lon="123.5895172">
        <ele>68.0</ele>
      </trkpt>
      <trkpt lat="41.8229788" lon="123.5896132">
        <ele>68.1</ele>
      </trkpt>
      <trkpt lat="41.8230568" lon="123.5897692">
        <ele>68.2</ele>
      </trkpt>
      <trkpt lat="41.8234608" lon="123.5904721">
        <ele>68.6</ele>
      </trkpt>
      <trkpt lat="41.8235518" lon="123.5906281">
        <ele>68.7</ele>
      </trkpt>
      <trkpt lat="41.8246798" lon="123.5927987">
        <ele>70.1</ele>
      </trkpt>
      <trkpt lat="41.8250008" lon="123.5933405">
        <ele>70.4</ele>
      </trkpt>
      <trkpt lat="41.8259816" lon="123.5948590">
        <ele>71.4</ele>
      </trkpt>
      <trkpt lat="41.8260856" lon="123.5950020">
        <ele>71.5</ele>
      </trkpt>
      <trkpt lat="41.8261946" lon="123.5950889">
        <ele>71.6</ele>
      </trkpt>
      <trkpt lat="41.8261946" lon="123.5950889">
        <ele>71.6</ele>
      </trkpt>
      <trkpt lat="41.8262856" lon="123.5951019">
        <ele>71.7</ele>
      </trkpt>
      <trkpt lat="41.8263546" lon="123.5950849">
        <ele>71.7</ele>
      </trkpt>
      <trkpt lat="41.8263546" lon="123.5950849">
        <ele>71.7</ele>
      </trkpt>
      <trkpt lat="41.8263986" lon="123.5950499">
        <ele>71.8</ele>
      </trkpt>
      <trkpt lat="41.8263986" lon="123.5950459">
        <ele>71.8</ele>
      </trkpt>
      <trkpt lat="41.8264766" lon="123.5949979">
        <ele>71.8</ele>
      </trkpt>
      <trkpt lat="41.8264766" lon="123.5949979">
        <ele>71.8</ele>
      </trkpt>
      <trkpt lat="41.8268627" lon="123.5947119">
        <ele>72.1</ele>
      </trkpt>
      <trkpt lat="41.8268627" lon="123.5947069">
        <ele>72.1</ele>
      </trkpt>
      <trkpt lat="41.8270756" lon="123.5953317">
        <ele>72.5</ele>
      </trkpt>
      <trkpt lat="41.8272235" lon="123.5957526">
        <ele>72.7</ele>
      </trkpt>
      <trkpt lat="41.8272924" lon="123.5960435">
        <ele>72.9</ele>
      </trkpt>
      <trkpt lat="41.8272924" lon="123.5960435">
        <ele>72.9</ele>
      </trkpt>
      <trkpt lat="41.8273354" lon="123.5961604">
        <ele>72.9</ele>
      </trkpt>
      <trkpt lat="41.8275523" lon="123.5964993">
        <ele>73.2</ele>
      </trkpt>
      <trkpt lat="41.8277043" lon="123.5968681">
        <ele>73.4</ele>
      </trkpt>
      <trkpt lat="41.8278432" lon="123.5971590">
        <ele>73.6</ele>
      </trkpt>
      <trkpt lat="41.8280262" lon="123.5973059">
        <ele>73.7</ele>
      </trkpt>
      <trkpt lat="41.8280562" lon="123.5973109">
        <ele>73.7</ele>
      </trkpt>
      <trkpt lat="41.8282212" lon="123.5973448">
        <ele>73.8</ele>
      </trkpt>
      <trkpt lat="41.8282212" lon="123.5973448">
        <ele>73.8</ele>
      </trkpt>
      <trkpt lat="41.8282121" lon="123.5974968">
        <ele>73.9</ele>
      </trkpt>
      <trkpt lat="41.8282250" lon="123.5980135">
        <ele>74.2</ele>
      </trkpt>
      <trkpt lat="41.8282559" lon="123.5982214">
        <ele>74.3</ele>
      </trkpt>
      <trkpt lat="41.8283119" lon="123.5984123">
        <ele>74.4</ele>
      </trkpt>
      <trkpt lat="41.8293090" lon="123.6009278">
        <ele>75.8</ele>
      </trkpt>
      <trkpt lat="41.8294349" lon="123.6012056">
        <ele>76.0</ele>
      </trkpt>
      <trkpt lat="41.8295478" lon="123.6014184">
        <ele>76.1</ele>
      </trkpt>
      <trkpt lat="41.8296557" lon="123.6015703">
        <ele>76.2</ele>
      </trkpt>
      <trkpt lat="41.8303153" lon="123.6024456">
        <ele>76.9</ele>
      </trkpt>
      <trkpt lat="41.8304373" lon="123.6026495">
        <ele>77.0</ele>
      </trkpt>
    </trkseg>
  </trk>
</gpx>